<?xml version="1.0" encoding="UTF-8"?>
<gpx version="1.1" creator="AltitudeRando - https://www.altituderando.com" xmlns="http://www.topografix.com/GPX/1/1" xmlns:xsi="http://www.w3.org/2001/XMLSchema-instance" xsi:schemaLocation="http://www.topografix.com/GPX/1/1 http://www.topografix.com/GPX/1/1/gpx.xsd">
  <metadata>
    <name><![CDATA[r20340-domes-de-miage-3673m-traversee-integrale]]></name>
  </metadata>
  <trk>
    <name><![CDATA[Dômes de Miage : Traversée intégrale des Dômes W → E jusqu'au refuge Durier]]></name>
    <extensions>
      <line xmlns="http://www.topografix.com/GPX/gpx_style/0/2">
        <color>0000FF</color>
        <width>4</width>
      </line>
    </extensions>
    <trkseg>
      <trkpt lat="45.823072" lon="6.735115">
        <ele>1273</ele>
      </trkpt>
      <trkpt lat="45.823013" lon="6.73601">
        <ele>1305</ele>
      </trkpt>
      <trkpt lat="45.822927" lon="6.73641">
        <ele>1313</ele>
      </trkpt>
      <trkpt lat="45.822975" lon="6.736807">
        <ele>1320</ele>
      </trkpt>
      <trkpt lat="45.82296" lon="6.737232">
        <ele>1327</ele>
      </trkpt>
      <trkpt lat="45.822867" lon="6.737722">
        <ele>1336</ele>
      </trkpt>
      <trkpt lat="45.823013" lon="6.73819">
        <ele>1343</ele>
      </trkpt>
      <trkpt lat="45.823027" lon="6.738688">
        <ele>1351</ele>
      </trkpt>
      <trkpt lat="45.82292" lon="6.73929">
        <ele>1357</ele>
      </trkpt>
      <trkpt lat="45.822853" lon="6.739473">
        <ele>1359</ele>
      </trkpt>
      <trkpt lat="45.822808" lon="6.739442">
        <ele>1364</ele>
      </trkpt>
      <trkpt lat="45.82296" lon="6.739882">
        <ele>1372</ele>
      </trkpt>
      <trkpt lat="45.82341" lon="6.740808">
        <ele>1386</ele>
      </trkpt>
      <trkpt lat="45.823483" lon="6.741458">
        <ele>1396</ele>
      </trkpt>
      <trkpt lat="45.823622" lon="6.741913">
        <ele>1406</ele>
      </trkpt>
      <trkpt lat="45.823708" lon="6.74202">
        <ele>1409</ele>
      </trkpt>
      <trkpt lat="45.823967" lon="6.7427">
        <ele>1425</ele>
      </trkpt>
      <trkpt lat="45.82421" lon="6.743058">
        <ele>1435</ele>
      </trkpt>
      <trkpt lat="45.824367" lon="6.743653">
        <ele>1447</ele>
      </trkpt>
      <trkpt lat="45.824722" lon="6.743925">
        <ele>1453</ele>
      </trkpt>
      <trkpt lat="45.824965" lon="6.743877">
        <ele>1457</ele>
      </trkpt>
      <trkpt lat="45.825385" lon="6.742798">
        <ele>1475</ele>
      </trkpt>
      <trkpt lat="45.82548" lon="6.742205">
        <ele>1479</ele>
      </trkpt>
      <trkpt lat="45.825478" lon="6.7419">
        <ele>1481</ele>
      </trkpt>
      <trkpt lat="45.825285" lon="6.741047">
        <ele>1493</ele>
      </trkpt>
      <trkpt lat="45.825298" lon="6.740828">
        <ele>1496</ele>
      </trkpt>
      <trkpt lat="45.825382" lon="6.740728">
        <ele>1498</ele>
      </trkpt>
      <trkpt lat="45.825522" lon="6.740748">
        <ele>1501</ele>
      </trkpt>
      <trkpt lat="45.826105" lon="6.741162">
        <ele>1510</ele>
      </trkpt>
      <trkpt lat="45.826415" lon="6.741207">
        <ele>1514</ele>
      </trkpt>
      <trkpt lat="45.826582" lon="6.741097">
        <ele>1516</ele>
      </trkpt>
      <trkpt lat="45.826828" lon="6.740748">
        <ele>1520</ele>
      </trkpt>
      <trkpt lat="45.827205" lon="6.740585">
        <ele>1523</ele>
      </trkpt>
      <trkpt lat="45.827382" lon="6.740343">
        <ele>1524</ele>
      </trkpt>
      <trkpt lat="45.827442" lon="6.740125">
        <ele>1525</ele>
      </trkpt>
      <trkpt lat="45.827522" lon="6.740098">
        <ele>1526</ele>
      </trkpt>
      <trkpt lat="45.828032" lon="6.740585">
        <ele>1531</ele>
      </trkpt>
      <trkpt lat="45.828108" lon="6.740828">
        <ele>1534</ele>
      </trkpt>
      <trkpt lat="45.82812" lon="6.741263">
        <ele>1536</ele>
      </trkpt>
      <trkpt lat="45.8282" lon="6.741665">
        <ele>1537</ele>
      </trkpt>
      <trkpt lat="45.828505" lon="6.741808">
        <ele>1537</ele>
      </trkpt>
      <trkpt lat="45.828742" lon="6.742007">
        <ele>1538</ele>
      </trkpt>
      <trkpt lat="45.828923" lon="6.74194">
        <ele>1538</ele>
      </trkpt>
      <trkpt lat="45.829173" lon="6.741568">
        <ele>1538</ele>
      </trkpt>
      <trkpt lat="45.82935" lon="6.741502">
        <ele>1538</ele>
      </trkpt>
      <trkpt lat="45.829218" lon="6.74174">
        <ele>1542</ele>
      </trkpt>
      <trkpt lat="45.829247" lon="6.741718">
        <ele>1539</ele>
      </trkpt>
      <trkpt lat="45.82935" lon="6.741492">
        <ele>1537</ele>
      </trkpt>
      <trkpt lat="45.82927" lon="6.741477">
        <ele>1536</ele>
      </trkpt>
      <trkpt lat="45.829177" lon="6.741607">
        <ele>1536</ele>
      </trkpt>
      <trkpt lat="45.829152" lon="6.741542">
        <ele>1542</ele>
      </trkpt>
      <trkpt lat="45.829318" lon="6.741485">
        <ele>1549</ele>
      </trkpt>
      <trkpt lat="45.8292" lon="6.7418">
        <ele>1561</ele>
      </trkpt>
      <trkpt lat="45.829273" lon="6.741938">
        <ele>1568</ele>
      </trkpt>
      <trkpt lat="45.829197" lon="6.742103">
        <ele>1572</ele>
      </trkpt>
      <trkpt lat="45.829302" lon="6.742695">
        <ele>1589</ele>
      </trkpt>
      <trkpt lat="45.829263" lon="6.743002">
        <ele>1596</ele>
      </trkpt>
      <trkpt lat="45.829413" lon="6.743302">
        <ele>1603</ele>
      </trkpt>
      <trkpt lat="45.82956" lon="6.743458">
        <ele>1609</ele>
      </trkpt>
      <trkpt lat="45.829417" lon="6.743602">
        <ele>1612</ele>
      </trkpt>
      <trkpt lat="45.829155" lon="6.743707">
        <ele>1618</ele>
      </trkpt>
      <trkpt lat="45.82916" lon="6.743822">
        <ele>1620</ele>
      </trkpt>
      <trkpt lat="45.829253" lon="6.743945">
        <ele>1623</ele>
      </trkpt>
      <trkpt lat="45.829493" lon="6.743998">
        <ele>1629</ele>
      </trkpt>
      <trkpt lat="45.829573" lon="6.74421">
        <ele>1632</ele>
      </trkpt>
      <trkpt lat="45.829737" lon="6.744315">
        <ele>1633</ele>
      </trkpt>
      <trkpt lat="45.830012" lon="6.744712">
        <ele>1638</ele>
      </trkpt>
      <trkpt lat="45.830543" lon="6.745057">
        <ele>1652</ele>
      </trkpt>
      <trkpt lat="45.830603" lon="6.745263">
        <ele>1657</ele>
      </trkpt>
      <trkpt lat="45.831003" lon="6.745788">
        <ele>1667</ele>
      </trkpt>
      <trkpt lat="45.831705" lon="6.745998">
        <ele>1678</ele>
      </trkpt>
      <trkpt lat="45.832585" lon="6.745992">
        <ele>1687</ele>
      </trkpt>
      <trkpt lat="45.832947" lon="6.746237">
        <ele>1690</ele>
      </trkpt>
      <trkpt lat="45.83319" lon="6.746203">
        <ele>1692</ele>
      </trkpt>
      <trkpt lat="45.833483" lon="6.746352">
        <ele>1695</ele>
      </trkpt>
      <trkpt lat="45.833702" lon="6.746378">
        <ele>1696</ele>
      </trkpt>
      <trkpt lat="45.834623" lon="6.746947">
        <ele>1708</ele>
      </trkpt>
      <trkpt lat="45.835033" lon="6.747777">
        <ele>1712</ele>
      </trkpt>
      <trkpt lat="45.835337" lon="6.748092">
        <ele>1715</ele>
      </trkpt>
      <trkpt lat="45.835663" lon="6.74822">
        <ele>1716</ele>
      </trkpt>
      <trkpt lat="45.835842" lon="6.748535">
        <ele>1718</ele>
      </trkpt>
      <trkpt lat="45.83614" lon="6.748838">
        <ele>1722</ele>
      </trkpt>
      <trkpt lat="45.836203" lon="6.749038">
        <ele>1723</ele>
      </trkpt>
      <trkpt lat="45.836198" lon="6.749342">
        <ele>1727</ele>
      </trkpt>
      <trkpt lat="45.835928" lon="6.749985">
        <ele>1733</ele>
      </trkpt>
      <trkpt lat="45.835475" lon="6.750658">
        <ele>1738</ele>
      </trkpt>
      <trkpt lat="45.83549" lon="6.75147">
        <ele>1742</ele>
      </trkpt>
      <trkpt lat="45.835673" lon="6.751918">
        <ele>1743</ele>
      </trkpt>
      <trkpt lat="45.835887" lon="6.752073">
        <ele>1742</ele>
      </trkpt>
      <trkpt lat="45.836067" lon="6.752312">
        <ele>1741</ele>
      </trkpt>
      <trkpt lat="45.836412" lon="6.752428">
        <ele>1738</ele>
      </trkpt>
      <trkpt lat="45.836467" lon="6.752513">
        <ele>1738</ele>
      </trkpt>
      <trkpt lat="45.836313" lon="6.75304">
        <ele>1735</ele>
      </trkpt>
      <trkpt lat="45.836272" lon="6.7534">
        <ele>1734</ele>
      </trkpt>
      <trkpt lat="45.83604" lon="6.754072">
        <ele>1732</ele>
      </trkpt>
      <trkpt lat="45.836028" lon="6.754255">
        <ele>1731</ele>
      </trkpt>
      <trkpt lat="45.836028" lon="6.754532">
        <ele>1729</ele>
      </trkpt>
      <trkpt lat="45.836185" lon="6.7548">
        <ele>1724</ele>
      </trkpt>
      <trkpt lat="45.8363" lon="6.754838">
        <ele>1721</ele>
      </trkpt>
      <trkpt lat="45.836268" lon="6.755053">
        <ele>1718</ele>
      </trkpt>
      <trkpt lat="45.836303" lon="6.755148">
        <ele>1717</ele>
      </trkpt>
      <trkpt lat="45.836422" lon="6.75526">
        <ele>1713</ele>
      </trkpt>
      <trkpt lat="45.836742" lon="6.755228">
        <ele>1699</ele>
      </trkpt>
      <trkpt lat="45.836822" lon="6.755532">
        <ele>1692</ele>
      </trkpt>
      <trkpt lat="45.836923" lon="6.755617">
        <ele>1687</ele>
      </trkpt>
      <trkpt lat="45.837007" lon="6.7556">
        <ele>1682</ele>
      </trkpt>
      <trkpt lat="45.837042" lon="6.755673">
        <ele>1679</ele>
      </trkpt>
      <trkpt lat="45.837563" lon="6.755492">
        <ele>1663</ele>
      </trkpt>
      <trkpt lat="45.838213" lon="6.755662">
        <ele>1639</ele>
      </trkpt>
      <trkpt lat="45.838412" lon="6.755788">
        <ele>1633</ele>
      </trkpt>
      <trkpt lat="45.839218" lon="6.755775">
        <ele>1616</ele>
      </trkpt>
      <trkpt lat="45.839398" lon="6.75594">
        <ele>1611</ele>
      </trkpt>
      <trkpt lat="45.839583" lon="6.755858">
        <ele>1603</ele>
      </trkpt>
      <trkpt lat="45.839507" lon="6.756248">
        <ele>1597</ele>
      </trkpt>
      <trkpt lat="45.839128" lon="6.756483">
        <ele>1586</ele>
      </trkpt>
      <trkpt lat="45.838988" lon="6.756645">
        <ele>1580</ele>
      </trkpt>
      <trkpt lat="45.83919" lon="6.756847">
        <ele>1577</ele>
      </trkpt>
      <trkpt lat="45.838933" lon="6.757172">
        <ele>1568</ele>
      </trkpt>
      <trkpt lat="45.838933" lon="6.757242">
        <ele>1567</ele>
      </trkpt>
      <trkpt lat="45.839027" lon="6.757277">
        <ele>1565</ele>
      </trkpt>
      <trkpt lat="45.83895" lon="6.75741">
        <ele>1563</ele>
      </trkpt>
      <trkpt lat="45.838985" lon="6.757515">
        <ele>1562</ele>
      </trkpt>
      <trkpt lat="45.838908" lon="6.757858">
        <ele>1560</ele>
      </trkpt>
      <trkpt lat="45.83894" lon="6.757932">
        <ele>1560</ele>
      </trkpt>
      <trkpt lat="45.838902" lon="6.75818">
        <ele>1561</ele>
      </trkpt>
      <trkpt lat="45.83829" lon="6.758503">
        <ele>1563</ele>
      </trkpt>
      <trkpt lat="45.838137" lon="6.75898">
        <ele>1563</ele>
      </trkpt>
      <trkpt lat="45.83806" lon="6.75961">
        <ele>1564</ele>
      </trkpt>
      <trkpt lat="45.838095" lon="6.759755">
        <ele>1563</ele>
      </trkpt>
      <trkpt lat="45.838412" lon="6.75995">
        <ele>1564</ele>
      </trkpt>
      <trkpt lat="45.838882" lon="6.760428">
        <ele>1565</ele>
      </trkpt>
      <trkpt lat="45.839" lon="6.76044">
        <ele>1565</ele>
      </trkpt>
      <trkpt lat="45.839048" lon="6.76054">
        <ele>1566</ele>
      </trkpt>
      <trkpt lat="45.838982" lon="6.760865">
        <ele>1568</ele>
      </trkpt>
      <trkpt lat="45.838902" lon="6.76093">
        <ele>1568</ele>
      </trkpt>
      <trkpt lat="45.838943" lon="6.761228">
        <ele>1570</ele>
      </trkpt>
      <trkpt lat="45.83887" lon="6.761468">
        <ele>1571</ele>
      </trkpt>
      <trkpt lat="45.838582" lon="6.761763">
        <ele>1572</ele>
      </trkpt>
      <trkpt lat="45.83831" lon="6.762172">
        <ele>1574</ele>
      </trkpt>
      <trkpt lat="45.837688" lon="6.762807">
        <ele>1580</ele>
      </trkpt>
      <trkpt lat="45.837577" lon="6.76308">
        <ele>1582</ele>
      </trkpt>
      <trkpt lat="45.83717" lon="6.76356">
        <ele>1587</ele>
      </trkpt>
      <trkpt lat="45.836488" lon="6.76398">
        <ele>1594</ele>
      </trkpt>
      <trkpt lat="45.83606" lon="6.764405">
        <ele>1600</ele>
      </trkpt>
      <trkpt lat="45.835688" lon="6.76449">
        <ele>1604</ele>
      </trkpt>
      <trkpt lat="45.835208" lon="6.764778">
        <ele>1609</ele>
      </trkpt>
      <trkpt lat="45.834438" lon="6.76564">
        <ele>1620</ele>
      </trkpt>
      <trkpt lat="45.834317" lon="6.765938">
        <ele>1624</ele>
      </trkpt>
      <trkpt lat="45.83416" lon="6.76621">
        <ele>1627</ele>
      </trkpt>
      <trkpt lat="45.834022" lon="6.766327">
        <ele>1630</ele>
      </trkpt>
      <trkpt lat="45.83392" lon="6.766563">
        <ele>1634</ele>
      </trkpt>
      <trkpt lat="45.833727" lon="6.766712">
        <ele>1638</ele>
      </trkpt>
      <trkpt lat="45.833468" lon="6.76706">
        <ele>1644</ele>
      </trkpt>
      <trkpt lat="45.833055" lon="6.767283">
        <ele>1650</ele>
      </trkpt>
      <trkpt lat="45.832755" lon="6.767307">
        <ele>1654</ele>
      </trkpt>
      <trkpt lat="45.832508" lon="6.767445">
        <ele>1656</ele>
      </trkpt>
      <trkpt lat="45.832168" lon="6.767913">
        <ele>1676</ele>
      </trkpt>
      <trkpt lat="45.832147" lon="6.768075">
        <ele>1679</ele>
      </trkpt>
      <trkpt lat="45.83199" lon="6.76827">
        <ele>1684</ele>
      </trkpt>
      <trkpt lat="45.831782" lon="6.76848">
        <ele>1692</ele>
      </trkpt>
      <trkpt lat="45.8316" lon="6.768497">
        <ele>1697</ele>
      </trkpt>
      <trkpt lat="45.831202" lon="6.769078">
        <ele>1714</ele>
      </trkpt>
      <trkpt lat="45.831075" lon="6.769225">
        <ele>1719</ele>
      </trkpt>
      <trkpt lat="45.830923" lon="6.76928">
        <ele>1723</ele>
      </trkpt>
      <trkpt lat="45.830857" lon="6.76943">
        <ele>1728</ele>
      </trkpt>
      <trkpt lat="45.830582" lon="6.769357">
        <ele>1737</ele>
      </trkpt>
      <trkpt lat="45.830363" lon="6.769102">
        <ele>1748</ele>
      </trkpt>
      <trkpt lat="45.83032" lon="6.769112">
        <ele>1749</ele>
      </trkpt>
      <trkpt lat="45.83036" lon="6.769175">
        <ele>1754</ele>
      </trkpt>
      <trkpt lat="45.83022" lon="6.76914">
        <ele>1763</ele>
      </trkpt>
      <trkpt lat="45.83012" lon="6.769353">
        <ele>1769</ele>
      </trkpt>
      <trkpt lat="45.830025" lon="6.769405">
        <ele>1773</ele>
      </trkpt>
      <trkpt lat="45.829955" lon="6.769807">
        <ele>1783</ele>
      </trkpt>
      <trkpt lat="45.829865" lon="6.76994">
        <ele>1788</ele>
      </trkpt>
      <trkpt lat="45.829823" lon="6.770543">
        <ele>1805</ele>
      </trkpt>
      <trkpt lat="45.829712" lon="6.770725">
        <ele>1813</ele>
      </trkpt>
      <trkpt lat="45.829657" lon="6.77117">
        <ele>1821</ele>
      </trkpt>
      <trkpt lat="45.829753" lon="6.771362">
        <ele>1826</ele>
      </trkpt>
      <trkpt lat="45.829798" lon="6.771878">
        <ele>1839</ele>
      </trkpt>
      <trkpt lat="45.830038" lon="6.772485">
        <ele>1862</ele>
      </trkpt>
      <trkpt lat="45.829858" lon="6.773038">
        <ele>1877</ele>
      </trkpt>
      <trkpt lat="45.829855" lon="6.7732">
        <ele>1879</ele>
      </trkpt>
      <trkpt lat="45.829723" lon="6.773423">
        <ele>1887</ele>
      </trkpt>
      <trkpt lat="45.829743" lon="6.773502">
        <ele>1890</ele>
      </trkpt>
      <trkpt lat="45.829567" lon="6.773897">
        <ele>1905</ele>
      </trkpt>
      <trkpt lat="45.829605" lon="6.774112">
        <ele>1911</ele>
      </trkpt>
      <trkpt lat="45.82935" lon="6.774675">
        <ele>1928</ele>
      </trkpt>
      <trkpt lat="45.829288" lon="6.7751">
        <ele>1942</ele>
      </trkpt>
      <trkpt lat="45.82916" lon="6.775492">
        <ele>1957</ele>
      </trkpt>
      <trkpt lat="45.829215" lon="6.775583">
        <ele>1960</ele>
      </trkpt>
      <trkpt lat="45.829218" lon="6.776062">
        <ele>1966</ele>
      </trkpt>
      <trkpt lat="45.82934" lon="6.776192">
        <ele>1971</ele>
      </trkpt>
      <trkpt lat="45.829282" lon="6.776353">
        <ele>1973</ele>
      </trkpt>
      <trkpt lat="45.829347" lon="6.776378">
        <ele>1986</ele>
      </trkpt>
      <trkpt lat="45.829368" lon="6.776767">
        <ele>1997</ele>
      </trkpt>
      <trkpt lat="45.82919" lon="6.777572">
        <ele>2026</ele>
      </trkpt>
      <trkpt lat="45.829083" lon="6.777668">
        <ele>2031</ele>
      </trkpt>
      <trkpt lat="45.828995" lon="6.777932">
        <ele>2038</ele>
      </trkpt>
      <trkpt lat="45.828982" lon="6.77815">
        <ele>2044</ele>
      </trkpt>
      <trkpt lat="45.829033" lon="6.778193">
        <ele>2049</ele>
      </trkpt>
      <trkpt lat="45.82911" lon="6.778542">
        <ele>2056</ele>
      </trkpt>
      <trkpt lat="45.82902" lon="6.77906">
        <ele>2076</ele>
      </trkpt>
      <trkpt lat="45.829062" lon="6.77914">
        <ele>2079</ele>
      </trkpt>
      <trkpt lat="45.828962" lon="6.779482">
        <ele>2095</ele>
      </trkpt>
      <trkpt lat="45.82902" lon="6.779785">
        <ele>2107</ele>
      </trkpt>
      <trkpt lat="45.828962" lon="6.77993">
        <ele>2111</ele>
      </trkpt>
      <trkpt lat="45.828975" lon="6.78028">
        <ele>2120</ele>
      </trkpt>
      <trkpt lat="45.829135" lon="6.781023">
        <ele>2130</ele>
      </trkpt>
      <trkpt lat="45.829448" lon="6.781398">
        <ele>2136</ele>
      </trkpt>
      <trkpt lat="45.829635" lon="6.781482">
        <ele>2137</ele>
      </trkpt>
      <trkpt lat="45.83036" lon="6.78142">
        <ele>2147</ele>
      </trkpt>
      <trkpt lat="45.8306" lon="6.781562">
        <ele>2152</ele>
      </trkpt>
      <trkpt lat="45.8307" lon="6.781497">
        <ele>2156</ele>
      </trkpt>
      <trkpt lat="45.830703" lon="6.78138">
        <ele>2160</ele>
      </trkpt>
      <trkpt lat="45.830838" lon="6.781608">
        <ele>2165</ele>
      </trkpt>
      <trkpt lat="45.83085" lon="6.781548">
        <ele>2168</ele>
      </trkpt>
      <trkpt lat="45.83092" lon="6.781568">
        <ele>2170</ele>
      </trkpt>
      <trkpt lat="45.83088" lon="6.781322">
        <ele>2175</ele>
      </trkpt>
      <trkpt lat="45.831037" lon="6.781325">
        <ele>2182</ele>
      </trkpt>
      <trkpt lat="45.831202" lon="6.7817">
        <ele>2193</ele>
      </trkpt>
      <trkpt lat="45.831277" lon="6.781752">
        <ele>2195</ele>
      </trkpt>
      <trkpt lat="45.831323" lon="6.781958">
        <ele>2199</ele>
      </trkpt>
      <trkpt lat="45.831552" lon="6.782147">
        <ele>2225</ele>
      </trkpt>
      <trkpt lat="45.831698" lon="6.783243">
        <ele>2267</ele>
      </trkpt>
      <trkpt lat="45.831792" lon="6.783562">
        <ele>2284</ele>
      </trkpt>
      <trkpt lat="45.831935" lon="6.783682">
        <ele>2291</ele>
      </trkpt>
      <trkpt lat="45.83189" lon="6.783887">
        <ele>2302</ele>
      </trkpt>
      <trkpt lat="45.83197" lon="6.783975">
        <ele>2307</ele>
      </trkpt>
      <trkpt lat="45.831938" lon="6.78412">
        <ele>2313</ele>
      </trkpt>
      <trkpt lat="45.832035" lon="6.784183">
        <ele>2317</ele>
      </trkpt>
      <trkpt lat="45.832063" lon="6.784453">
        <ele>2328</ele>
      </trkpt>
      <trkpt lat="45.83216" lon="6.784503">
        <ele>2333</ele>
      </trkpt>
      <trkpt lat="45.83213" lon="6.784625">
        <ele>2335</ele>
      </trkpt>
      <trkpt lat="45.832192" lon="6.784673">
        <ele>2337</ele>
      </trkpt>
      <trkpt lat="45.83214" lon="6.78481">
        <ele>2341</ele>
      </trkpt>
      <trkpt lat="45.83222" lon="6.784985">
        <ele>2345</ele>
      </trkpt>
      <trkpt lat="45.832233" lon="6.78516">
        <ele>2361</ele>
      </trkpt>
      <trkpt lat="45.832182" lon="6.785207">
        <ele>2363</ele>
      </trkpt>
      <trkpt lat="45.832213" lon="6.785425">
        <ele>2370</ele>
      </trkpt>
      <trkpt lat="45.832287" lon="6.78552">
        <ele>2374</ele>
      </trkpt>
      <trkpt lat="45.83224" lon="6.785618">
        <ele>2378</ele>
      </trkpt>
      <trkpt lat="45.832332" lon="6.785712">
        <ele>2383</ele>
      </trkpt>
      <trkpt lat="45.832272" lon="6.785857">
        <ele>2391</ele>
      </trkpt>
      <trkpt lat="45.832307" lon="6.78594">
        <ele>2396</ele>
      </trkpt>
      <trkpt lat="45.832258" lon="6.785998">
        <ele>2398</ele>
      </trkpt>
      <trkpt lat="45.83228" lon="6.786327">
        <ele>2414</ele>
      </trkpt>
      <trkpt lat="45.832172" lon="6.78661">
        <ele>2428</ele>
      </trkpt>
      <trkpt lat="45.832245" lon="6.786812">
        <ele>2440</ele>
      </trkpt>
      <trkpt lat="45.832168" lon="6.786915">
        <ele>2443</ele>
      </trkpt>
      <trkpt lat="45.832332" lon="6.787137">
        <ele>2454</ele>
      </trkpt>
      <trkpt lat="45.832182" lon="6.787377">
        <ele>2466</ele>
      </trkpt>
      <trkpt lat="45.832293" lon="6.787475">
        <ele>2472</ele>
      </trkpt>
      <trkpt lat="45.832272" lon="6.787682">
        <ele>2483</ele>
      </trkpt>
      <trkpt lat="45.83239" lon="6.787772">
        <ele>2488</ele>
      </trkpt>
      <trkpt lat="45.83232" lon="6.78793">
        <ele>2493</ele>
      </trkpt>
      <trkpt lat="45.83239" lon="6.787997">
        <ele>2498</ele>
      </trkpt>
      <trkpt lat="45.832348" lon="6.788072">
        <ele>2502</ele>
      </trkpt>
      <trkpt lat="45.832393" lon="6.78814">
        <ele>2507</ele>
      </trkpt>
      <trkpt lat="45.83236" lon="6.788245">
        <ele>2511</ele>
      </trkpt>
      <trkpt lat="45.832527" lon="6.7884">
        <ele>2524</ele>
      </trkpt>
      <trkpt lat="45.83246" lon="6.788572">
        <ele>2535</ele>
      </trkpt>
      <trkpt lat="45.832565" lon="6.788625">
        <ele>2540</ele>
      </trkpt>
      <trkpt lat="45.83256" lon="6.788878">
        <ele>2553</ele>
      </trkpt>
      <trkpt lat="45.832633" lon="6.788938">
        <ele>2556</ele>
      </trkpt>
      <trkpt lat="45.832588" lon="6.789003">
        <ele>2559</ele>
      </trkpt>
      <trkpt lat="45.832633" lon="6.789122">
        <ele>2564</ele>
      </trkpt>
      <trkpt lat="45.832607" lon="6.789197">
        <ele>2567</ele>
      </trkpt>
      <trkpt lat="45.832652" lon="6.789202">
        <ele>2569</ele>
      </trkpt>
      <trkpt lat="45.83271" lon="6.789467">
        <ele>2582</ele>
      </trkpt>
      <trkpt lat="45.83277" lon="6.789503">
        <ele>2585</ele>
      </trkpt>
      <trkpt lat="45.832758" lon="6.790005">
        <ele>2596</ele>
      </trkpt>
      <trkpt lat="45.832822" lon="6.790305">
        <ele>2598</ele>
      </trkpt>
      <trkpt lat="45.832648" lon="6.79116">
        <ele>2600</ele>
      </trkpt>
      <trkpt lat="45.832637" lon="6.791497">
        <ele>2608</ele>
      </trkpt>
      <trkpt lat="45.832443" lon="6.79176">
        <ele>2611</ele>
      </trkpt>
      <trkpt lat="45.832338" lon="6.791805">
        <ele>2613</ele>
      </trkpt>
      <trkpt lat="45.8322" lon="6.792048">
        <ele>2617</ele>
      </trkpt>
      <trkpt lat="45.831932" lon="6.792247">
        <ele>2628</ele>
      </trkpt>
      <trkpt lat="45.831913" lon="6.792442">
        <ele>2632</ele>
      </trkpt>
      <trkpt lat="45.83183" lon="6.79246">
        <ele>2636</ele>
      </trkpt>
      <trkpt lat="45.8318" lon="6.79255">
        <ele>2638</ele>
      </trkpt>
      <trkpt lat="45.831798" lon="6.792752">
        <ele>2643</ele>
      </trkpt>
      <trkpt lat="45.831625" lon="6.792907">
        <ele>2650</ele>
      </trkpt>
      <trkpt lat="45.831587" lon="6.793425">
        <ele>2662</ele>
      </trkpt>
      <trkpt lat="45.831525" lon="6.793512">
        <ele>2664</ele>
      </trkpt>
      <trkpt lat="45.832492" lon="6.795617">
        <ele>2694</ele>
      </trkpt>
      <trkpt lat="45.832485" lon="6.79612">
        <ele>2694</ele>
      </trkpt>
      <trkpt lat="45.832325" lon="6.796657">
        <ele>2692</ele>
      </trkpt>
      <trkpt lat="45.832297" lon="6.796407">
        <ele>2698</ele>
      </trkpt>
      <trkpt lat="45.832258" lon="6.796478">
        <ele>2699</ele>
      </trkpt>
      <trkpt lat="45.832307" lon="6.796643">
        <ele>2699</ele>
      </trkpt>
      <trkpt lat="45.832352" lon="6.796625">
        <ele>2697</ele>
      </trkpt>
      <trkpt lat="45.832287" lon="6.796942">
        <ele>2697</ele>
      </trkpt>
      <trkpt lat="45.832262" lon="6.796843">
        <ele>2698</ele>
      </trkpt>
      <trkpt lat="45.832207" lon="6.796988">
        <ele>2698</ele>
      </trkpt>
      <trkpt lat="45.832335" lon="6.796678">
        <ele>2698</ele>
      </trkpt>
      <trkpt lat="45.832345" lon="6.796503">
        <ele>2690</ele>
      </trkpt>
      <trkpt lat="45.83205" lon="6.796685">
        <ele>2694</ele>
      </trkpt>
      <trkpt lat="45.831903" lon="6.796963">
        <ele>2704</ele>
      </trkpt>
      <trkpt lat="45.831858" lon="6.797275">
        <ele>2712</ele>
      </trkpt>
      <trkpt lat="45.831803" lon="6.797355">
        <ele>2715</ele>
      </trkpt>
      <trkpt lat="45.831893" lon="6.797543">
        <ele>2723</ele>
      </trkpt>
      <trkpt lat="45.83204" lon="6.797552">
        <ele>2734</ele>
      </trkpt>
      <trkpt lat="45.832035" lon="6.797628">
        <ele>2737</ele>
      </trkpt>
      <trkpt lat="45.83164" lon="6.798057">
        <ele>2748</ele>
      </trkpt>
      <trkpt lat="45.831437" lon="6.7981">
        <ele>2753</ele>
      </trkpt>
      <trkpt lat="45.831483" lon="6.7983">
        <ele>2765</ele>
      </trkpt>
      <trkpt lat="45.8316" lon="6.798348">
        <ele>2773</ele>
      </trkpt>
      <trkpt lat="45.831602" lon="6.798422">
        <ele>2778</ele>
      </trkpt>
      <trkpt lat="45.831785" lon="6.798648">
        <ele>2788</ele>
      </trkpt>
      <trkpt lat="45.831852" lon="6.799012">
        <ele>2792</ele>
      </trkpt>
      <trkpt lat="45.831723" lon="6.79928">
        <ele>2793</ele>
      </trkpt>
      <trkpt lat="45.831757" lon="6.7995">
        <ele>2795</ele>
      </trkpt>
      <trkpt lat="45.831653" lon="6.79998">
        <ele>2800</ele>
      </trkpt>
      <trkpt lat="45.831552" lon="6.800032">
        <ele>2799</ele>
      </trkpt>
      <trkpt lat="45.831472" lon="6.80031">
        <ele>2800</ele>
      </trkpt>
      <trkpt lat="45.831218" lon="6.800545">
        <ele>2800</ele>
      </trkpt>
      <trkpt lat="45.831222" lon="6.800728">
        <ele>2802</ele>
      </trkpt>
      <trkpt lat="45.831058" lon="6.801013">
        <ele>2802</ele>
      </trkpt>
      <trkpt lat="45.830767" lon="6.801197">
        <ele>2800</ele>
      </trkpt>
      <trkpt lat="45.830463" lon="6.801238">
        <ele>2803</ele>
      </trkpt>
      <trkpt lat="45.830473" lon="6.801105">
        <ele>2808</ele>
      </trkpt>
      <trkpt lat="45.830418" lon="6.801033">
        <ele>2812</ele>
      </trkpt>
      <trkpt lat="45.830233" lon="6.800978">
        <ele>2815</ele>
      </trkpt>
      <trkpt lat="45.830165" lon="6.800863">
        <ele>2814</ele>
      </trkpt>
      <trkpt lat="45.829948" lon="6.800748">
        <ele>2807</ele>
      </trkpt>
      <trkpt lat="45.829788" lon="6.800765">
        <ele>2797</ele>
      </trkpt>
      <trkpt lat="45.829737" lon="6.800937">
        <ele>2796</ele>
      </trkpt>
      <trkpt lat="45.829677" lon="6.80095">
        <ele>2785</ele>
      </trkpt>
      <trkpt lat="45.829723" lon="6.80106">
        <ele>2780</ele>
      </trkpt>
      <trkpt lat="45.829677" lon="6.80133">
        <ele>2773</ele>
      </trkpt>
      <trkpt lat="45.829618" lon="6.801432">
        <ele>2774</ele>
      </trkpt>
      <trkpt lat="45.82956" lon="6.8014">
        <ele>2774</ele>
      </trkpt>
      <trkpt lat="45.82957" lon="6.801477">
        <ele>2774</ele>
      </trkpt>
      <trkpt lat="45.82952" lon="6.80142">
        <ele>2780</ele>
      </trkpt>
      <trkpt lat="45.829567" lon="6.801438">
        <ele>2780</ele>
      </trkpt>
      <trkpt lat="45.829507" lon="6.802103">
        <ele>2786</ele>
      </trkpt>
      <trkpt lat="45.829382" lon="6.802318">
        <ele>2786</ele>
      </trkpt>
      <trkpt lat="45.829232" lon="6.802342">
        <ele>2787</ele>
      </trkpt>
      <trkpt lat="45.828825" lon="6.80292">
        <ele>2791</ele>
      </trkpt>
      <trkpt lat="45.828547" lon="6.802973">
        <ele>2789</ele>
      </trkpt>
      <trkpt lat="45.828502" lon="6.80306">
        <ele>2788</ele>
      </trkpt>
      <trkpt lat="45.828348" lon="6.802883">
        <ele>2787</ele>
      </trkpt>
      <trkpt lat="45.828248" lon="6.802993">
        <ele>2787</ele>
      </trkpt>
      <trkpt lat="45.827948" lon="6.803073">
        <ele>2784</ele>
      </trkpt>
      <trkpt lat="45.827743" lon="6.803278">
        <ele>2787</ele>
      </trkpt>
      <trkpt lat="45.827612" lon="6.803568">
        <ele>2790</ele>
      </trkpt>
      <trkpt lat="45.827468" lon="6.803697">
        <ele>2792</ele>
      </trkpt>
      <trkpt lat="45.826755" lon="6.804115">
        <ele>2799</ele>
      </trkpt>
      <trkpt lat="45.826805" lon="6.804105">
        <ele>2811</ele>
      </trkpt>
      <trkpt lat="45.826495" lon="6.804342">
        <ele>2821</ele>
      </trkpt>
      <trkpt lat="45.826255" lon="6.80462">
        <ele>2828</ele>
      </trkpt>
      <trkpt lat="45.826073" lon="6.804958">
        <ele>2844</ele>
      </trkpt>
      <trkpt lat="45.826035" lon="6.804842">
        <ele>2866</ele>
      </trkpt>
      <trkpt lat="45.825932" lon="6.804765">
        <ele>2866</ele>
      </trkpt>
      <trkpt lat="45.825798" lon="6.80468">
        <ele>2880</ele>
      </trkpt>
      <trkpt lat="45.825673" lon="6.804697">
        <ele>2889</ele>
      </trkpt>
      <trkpt lat="45.82572" lon="6.80476">
        <ele>2899</ele>
      </trkpt>
      <trkpt lat="45.825625" lon="6.80519">
        <ele>2922</ele>
      </trkpt>
      <trkpt lat="45.82556" lon="6.805257">
        <ele>2927</ele>
      </trkpt>
      <trkpt lat="45.825563" lon="6.80553">
        <ele>2940</ele>
      </trkpt>
      <trkpt lat="45.825487" lon="6.805675">
        <ele>2948</ele>
      </trkpt>
      <trkpt lat="45.82558" lon="6.80585">
        <ele>2954</ele>
      </trkpt>
      <trkpt lat="45.8255" lon="6.805745">
        <ele>2971</ele>
      </trkpt>
      <trkpt lat="45.825478" lon="6.806097">
        <ele>2978</ele>
      </trkpt>
      <trkpt lat="45.825593" lon="6.806227">
        <ele>2989</ele>
      </trkpt>
      <trkpt lat="45.82548" lon="6.8063">
        <ele>2992</ele>
      </trkpt>
      <trkpt lat="45.825493" lon="6.806468">
        <ele>2998</ele>
      </trkpt>
      <trkpt lat="45.82541" lon="6.806595">
        <ele>3008</ele>
      </trkpt>
      <trkpt lat="45.825558" lon="6.806893">
        <ele>3030</ele>
      </trkpt>
      <trkpt lat="45.825525" lon="6.807143">
        <ele>3051</ele>
      </trkpt>
      <trkpt lat="45.825577" lon="6.807138">
        <ele>3056</ele>
      </trkpt>
      <trkpt lat="45.825587" lon="6.807448">
        <ele>3069</ele>
      </trkpt>
      <trkpt lat="45.82564" lon="6.807582">
        <ele>3077</ele>
      </trkpt>
      <trkpt lat="45.825638" lon="6.807945">
        <ele>3103</ele>
      </trkpt>
      <trkpt lat="45.82558" lon="6.80803">
        <ele>3111</ele>
      </trkpt>
      <trkpt lat="45.825677" lon="6.808248">
        <ele>3121</ele>
      </trkpt>
      <trkpt lat="45.825487" lon="6.808975">
        <ele>3166</ele>
      </trkpt>
      <trkpt lat="45.82552" lon="6.809347">
        <ele>3188</ele>
      </trkpt>
      <trkpt lat="45.825442" lon="6.80944">
        <ele>3196</ele>
      </trkpt>
      <trkpt lat="45.825462" lon="6.809617">
        <ele>3209</ele>
      </trkpt>
      <trkpt lat="45.825378" lon="6.809695">
        <ele>3215</ele>
      </trkpt>
      <trkpt lat="45.825388" lon="6.80977">
        <ele>3222</ele>
      </trkpt>
      <trkpt lat="45.825503" lon="6.809835">
        <ele>3225</ele>
      </trkpt>
      <trkpt lat="45.825423" lon="6.809932">
        <ele>3233</ele>
      </trkpt>
      <trkpt lat="45.82535" lon="6.810195">
        <ele>3248</ele>
      </trkpt>
      <trkpt lat="45.825395" lon="6.8103">
        <ele>3261</ele>
      </trkpt>
      <trkpt lat="45.825475" lon="6.810297">
        <ele>3265</ele>
      </trkpt>
      <trkpt lat="45.825388" lon="6.810445">
        <ele>3275</ele>
      </trkpt>
      <trkpt lat="45.82556" lon="6.81064">
        <ele>3285</ele>
      </trkpt>
      <trkpt lat="45.825483" lon="6.81064">
        <ele>3290</ele>
      </trkpt>
      <trkpt lat="45.825483" lon="6.810777">
        <ele>3295</ele>
      </trkpt>
      <trkpt lat="45.825545" lon="6.810843">
        <ele>3301</ele>
      </trkpt>
      <trkpt lat="45.825493" lon="6.81084">
        <ele>3305</ele>
      </trkpt>
      <trkpt lat="45.825517" lon="6.810912">
        <ele>3308</ele>
      </trkpt>
      <trkpt lat="45.82526" lon="6.81094">
        <ele>3325</ele>
      </trkpt>
      <trkpt lat="45.82533" lon="6.8112">
        <ele>3342</ele>
      </trkpt>
      <trkpt lat="45.82524" lon="6.811237">
        <ele>3351</ele>
      </trkpt>
      <trkpt lat="45.825218" lon="6.811323">
        <ele>3352</ele>
      </trkpt>
      <trkpt lat="45.825327" lon="6.811457">
        <ele>3355</ele>
      </trkpt>
      <trkpt lat="45.825312" lon="6.81183">
        <ele>3357</ele>
      </trkpt>
      <trkpt lat="45.825177" lon="6.811557">
        <ele>3355</ele>
      </trkpt>
      <trkpt lat="45.825003" lon="6.811498">
        <ele>3354</ele>
      </trkpt>
      <trkpt lat="45.824735" lon="6.811538">
        <ele>3356</ele>
      </trkpt>
      <trkpt lat="45.824185" lon="6.811118">
        <ele>3365</ele>
      </trkpt>
      <trkpt lat="45.823677" lon="6.81114">
        <ele>3375</ele>
      </trkpt>
      <trkpt lat="45.823323" lon="6.810958">
        <ele>3379</ele>
      </trkpt>
      <trkpt lat="45.82302" lon="6.810972">
        <ele>3377</ele>
      </trkpt>
      <trkpt lat="45.822405" lon="6.81082">
        <ele>3372</ele>
      </trkpt>
      <trkpt lat="45.822028" lon="6.81082">
        <ele>3365</ele>
      </trkpt>
      <trkpt lat="45.82188" lon="6.8106">
        <ele>3357</ele>
      </trkpt>
      <trkpt lat="45.821663" lon="6.810433">
        <ele>3345</ele>
      </trkpt>
      <trkpt lat="45.821483" lon="6.81007">
        <ele>3347</ele>
      </trkpt>
      <trkpt lat="45.821208" lon="6.809698">
        <ele>3360</ele>
      </trkpt>
      <trkpt lat="45.820947" lon="6.809655">
        <ele>3367</ele>
      </trkpt>
      <trkpt lat="45.820613" lon="6.809487">
        <ele>3371</ele>
      </trkpt>
      <trkpt lat="45.820457" lon="6.809545">
        <ele>3372</ele>
      </trkpt>
      <trkpt lat="45.82032" lon="6.809382">
        <ele>3377</ele>
      </trkpt>
      <trkpt lat="45.81983" lon="6.80922">
        <ele>3386</ele>
      </trkpt>
      <trkpt lat="45.81982" lon="6.809102">
        <ele>3385</ele>
      </trkpt>
      <trkpt lat="45.819542" lon="6.8087">
        <ele>3394</ele>
      </trkpt>
      <trkpt lat="45.81928" lon="6.808665">
        <ele>3408</ele>
      </trkpt>
      <trkpt lat="45.81928" lon="6.808443">
        <ele>3418</ele>
      </trkpt>
      <trkpt lat="45.819103" lon="6.808358">
        <ele>3442</ele>
      </trkpt>
      <trkpt lat="45.818825" lon="6.807778">
        <ele>3470</ele>
      </trkpt>
      <trkpt lat="45.818543" lon="6.807372">
        <ele>3490</ele>
      </trkpt>
      <trkpt lat="45.818317" lon="6.80731">
        <ele>3504</ele>
      </trkpt>
      <trkpt lat="45.818272" lon="6.807108">
        <ele>3513</ele>
      </trkpt>
      <trkpt lat="45.817723" lon="6.807023">
        <ele>3550</ele>
      </trkpt>
      <trkpt lat="45.817618" lon="6.806772">
        <ele>3560</ele>
      </trkpt>
      <trkpt lat="45.817333" lon="6.806798">
        <ele>3582</ele>
      </trkpt>
      <trkpt lat="45.816978" lon="6.80658">
        <ele>3596</ele>
      </trkpt>
      <trkpt lat="45.816627" lon="6.805055">
        <ele>3631</ele>
      </trkpt>
      <trkpt lat="45.81624" lon="6.804125">
        <ele>3663</ele>
      </trkpt>
      <trkpt lat="45.81613" lon="6.804">
        <ele>3667</ele>
      </trkpt>
      <trkpt lat="45.815932" lon="6.803918">
        <ele>3669</ele>
      </trkpt>
      <trkpt lat="45.815955" lon="6.80382">
        <ele>3669</ele>
      </trkpt>
      <trkpt lat="45.81589" lon="6.803587">
        <ele>3669</ele>
      </trkpt>
      <trkpt lat="45.815907" lon="6.802797">
        <ele>3652</ele>
      </trkpt>
      <trkpt lat="45.815448" lon="6.80116">
        <ele>3662</ele>
      </trkpt>
      <trkpt lat="45.815347" lon="6.800512">
        <ele>3674</ele>
      </trkpt>
      <trkpt lat="45.815247" lon="6.800333">
        <ele>3673</ele>
      </trkpt>
      <trkpt lat="45.815407" lon="6.799458">
        <ele>3640</ele>
      </trkpt>
      <trkpt lat="45.815577" lon="6.79746">
        <ele>3578</ele>
      </trkpt>
      <trkpt lat="45.815475" lon="6.79696">
        <ele>3559</ele>
      </trkpt>
      <trkpt lat="45.815312" lon="6.7965">
        <ele>3551</ele>
      </trkpt>
      <trkpt lat="45.814892" lon="6.796203">
        <ele>3559</ele>
      </trkpt>
      <trkpt lat="45.814397" lon="6.795265">
        <ele>3573</ele>
      </trkpt>
      <trkpt lat="45.81412" lon="6.794975">
        <ele>3583</ele>
      </trkpt>
      <trkpt lat="45.814005" lon="6.794722">
        <ele>3591</ele>
      </trkpt>
      <trkpt lat="45.813743" lon="6.794477">
        <ele>3609</ele>
      </trkpt>
      <trkpt lat="45.813792" lon="6.794168">
        <ele>3619</ele>
      </trkpt>
      <trkpt lat="45.813733" lon="6.794092">
        <ele>3622</ele>
      </trkpt>
      <trkpt lat="45.813747" lon="6.794022">
        <ele>3623</ele>
      </trkpt>
      <trkpt lat="45.813608" lon="6.79396">
        <ele>3624</ele>
      </trkpt>
      <trkpt lat="45.813323" lon="6.793633">
        <ele>3615</ele>
      </trkpt>
      <trkpt lat="45.813103" lon="6.793485">
        <ele>3609</ele>
      </trkpt>
      <trkpt lat="45.812502" lon="6.792658">
        <ele>3621</ele>
      </trkpt>
      <trkpt lat="45.812073" lon="6.791922">
        <ele>3645</ele>
      </trkpt>
      <trkpt lat="45.811483" lon="6.791377">
        <ele>3651</ele>
      </trkpt>
      <trkpt lat="45.811062" lon="6.790563">
        <ele>3659</ele>
      </trkpt>
      <trkpt lat="45.810178" lon="6.789645">
        <ele>3658</ele>
      </trkpt>
      <trkpt lat="45.81007" lon="6.788908">
        <ele>3620</ele>
      </trkpt>
      <trkpt lat="45.809522" lon="6.788315">
        <ele>3600</ele>
      </trkpt>
      <trkpt lat="45.809158" lon="6.787655">
        <ele>3583</ele>
      </trkpt>
      <trkpt lat="45.809152" lon="6.78748">
        <ele>3574</ele>
      </trkpt>
      <trkpt lat="45.808992" lon="6.787027">
        <ele>3559</ele>
      </trkpt>
      <trkpt lat="45.808693" lon="6.786678">
        <ele>3546</ele>
      </trkpt>
      <trkpt lat="45.80832" lon="6.786457">
        <ele>3537</ele>
      </trkpt>
      <trkpt lat="45.807913" lon="6.78586">
        <ele>3510</ele>
      </trkpt>
      <trkpt lat="45.807378" lon="6.785445">
        <ele>3485</ele>
      </trkpt>
      <trkpt lat="45.807218" lon="6.785252">
        <ele>3466</ele>
      </trkpt>
      <trkpt lat="45.806933" lon="6.784662">
        <ele>3425</ele>
      </trkpt>
      <trkpt lat="45.806873" lon="6.784262">
        <ele>3412</ele>
      </trkpt>
      <trkpt lat="45.806713" lon="6.78411">
        <ele>3395</ele>
      </trkpt>
      <trkpt lat="45.80663" lon="6.783592">
        <ele>3381</ele>
      </trkpt>
      <trkpt lat="45.806482" lon="6.783425">
        <ele>3372</ele>
      </trkpt>
      <trkpt lat="45.806213" lon="6.782905">
        <ele>3357</ele>
      </trkpt>
      <trkpt lat="45.805462" lon="6.782285">
        <ele>3342</ele>
      </trkpt>
      <trkpt lat="45.805382" lon="6.782083">
        <ele>3342</ele>
      </trkpt>
      <trkpt lat="45.80501" lon="6.78171">
        <ele>3346</ele>
      </trkpt>
      <trkpt lat="45.804543" lon="6.780838">
        <ele>3348</ele>
      </trkpt>
      <trkpt lat="45.804585" lon="6.78076">
        <ele>3348</ele>
      </trkpt>
      <trkpt lat="45.804492" lon="6.780607">
        <ele>3349</ele>
      </trkpt>
      <trkpt lat="45.804432" lon="6.7806">
        <ele>3348</ele>
      </trkpt>
      <trkpt lat="45.804488" lon="6.780565">
        <ele>3348</ele>
      </trkpt>
      <trkpt lat="45.804418" lon="6.78052">
        <ele>3349</ele>
      </trkpt>
      <trkpt lat="45.804498" lon="6.780488">
        <ele>3352</ele>
      </trkpt>
      <trkpt lat="45.804278" lon="6.780165">
        <ele>3360</ele>
      </trkpt>
      <trkpt lat="45.80373" lon="6.778963">
        <ele>3411</ele>
      </trkpt>
      <trkpt lat="45.803437" lon="6.779068">
        <ele>3407</ele>
      </trkpt>
      <trkpt lat="45.803282" lon="6.778922">
        <ele>3420</ele>
      </trkpt>
      <trkpt lat="45.8028" lon="6.77881">
        <ele>3411</ele>
      </trkpt>
      <trkpt lat="45.802195" lon="6.778897">
        <ele>3364</ele>
      </trkpt>
      <trkpt lat="45.801695" lon="6.778427">
        <ele>3323</ele>
      </trkpt>
      <trkpt lat="45.80149" lon="6.778373">
        <ele>3306</ele>
      </trkpt>
      <trkpt lat="45.801093" lon="6.77808">
        <ele>3280</ele>
      </trkpt>
      <trkpt lat="45.800537" lon="6.777825">
        <ele>3261</ele>
      </trkpt>
      <trkpt lat="45.800348" lon="6.777515">
        <ele>3244</ele>
      </trkpt>
      <trkpt lat="45.800412" lon="6.777255">
        <ele>3236</ele>
      </trkpt>
      <trkpt lat="45.80022" lon="6.776435">
        <ele>3213</ele>
      </trkpt>
      <trkpt lat="45.800195" lon="6.776045">
        <ele>3202</ele>
      </trkpt>
      <trkpt lat="45.799852" lon="6.775468">
        <ele>3192</ele>
      </trkpt>
      <trkpt lat="45.799827" lon="6.77518">
        <ele>3187</ele>
      </trkpt>
      <trkpt lat="45.799503" lon="6.774908">
        <ele>3170</ele>
      </trkpt>
      <trkpt lat="45.798988" lon="6.77468">
        <ele>3147</ele>
      </trkpt>
      <trkpt lat="45.79861" lon="6.774647">
        <ele>3130</ele>
      </trkpt>
      <trkpt lat="45.79831" lon="6.774475">
        <ele>3120</ele>
      </trkpt>
      <trkpt lat="45.798137" lon="6.77425">
        <ele>3114</ele>
      </trkpt>
      <trkpt lat="45.797932" lon="6.77378">
        <ele>3103</ele>
      </trkpt>
      <trkpt lat="45.797715" lon="6.773663">
        <ele>3096</ele>
      </trkpt>
      <trkpt lat="45.797395" lon="6.773267">
        <ele>3074</ele>
      </trkpt>
      <trkpt lat="45.7972" lon="6.773173">
        <ele>3067</ele>
      </trkpt>
      <trkpt lat="45.797037" lon="6.772995">
        <ele>3055</ele>
      </trkpt>
      <trkpt lat="45.79605" lon="6.772535">
        <ele>2995</ele>
      </trkpt>
      <trkpt lat="45.795302" lon="6.772068">
        <ele>2957</ele>
      </trkpt>
      <trkpt lat="45.795058" lon="6.772072">
        <ele>2951</ele>
      </trkpt>
      <trkpt lat="45.794877" lon="6.771728">
        <ele>2940</ele>
      </trkpt>
      <trkpt lat="45.794482" lon="6.771527">
        <ele>2920</ele>
      </trkpt>
      <trkpt lat="45.79421" lon="6.77121">
        <ele>2906</ele>
      </trkpt>
      <trkpt lat="45.794102" lon="6.770992">
        <ele>2898</ele>
      </trkpt>
      <trkpt lat="45.793632" lon="6.770543">
        <ele>2878</ele>
      </trkpt>
      <trkpt lat="45.793517" lon="6.770275">
        <ele>2871</ele>
      </trkpt>
      <trkpt lat="45.793232" lon="6.770115">
        <ele>2859</ele>
      </trkpt>
      <trkpt lat="45.79303" lon="6.769847">
        <ele>2851</ele>
      </trkpt>
      <trkpt lat="45.793027" lon="6.769745">
        <ele>2849</ele>
      </trkpt>
      <trkpt lat="45.792773" lon="6.769492">
        <ele>2841</ele>
      </trkpt>
      <trkpt lat="45.792713" lon="6.76932">
        <ele>2838</ele>
      </trkpt>
      <trkpt lat="45.792477" lon="6.769205">
        <ele>2834</ele>
      </trkpt>
      <trkpt lat="45.792352" lon="6.76899">
        <ele>2823</ele>
      </trkpt>
      <trkpt lat="45.792237" lon="6.76894">
        <ele>2819</ele>
      </trkpt>
      <trkpt lat="45.792192" lon="6.768763">
        <ele>2811</ele>
      </trkpt>
      <trkpt lat="45.792067" lon="6.76864">
        <ele>2806</ele>
      </trkpt>
      <trkpt lat="45.791973" lon="6.768397">
        <ele>2800</ele>
      </trkpt>
      <trkpt lat="45.791518" lon="6.767875">
        <ele>2782</ele>
      </trkpt>
      <trkpt lat="45.791427" lon="6.76791">
        <ele>2780</ele>
      </trkpt>
      <trkpt lat="45.79135" lon="6.767772">
        <ele>2776</ele>
      </trkpt>
      <trkpt lat="45.791232" lon="6.767742">
        <ele>2773</ele>
      </trkpt>
      <trkpt lat="45.791103" lon="6.76757">
        <ele>2766</ele>
      </trkpt>
      <trkpt lat="45.790802" lon="6.767593">
        <ele>2757</ele>
      </trkpt>
      <trkpt lat="45.790325" lon="6.76729">
        <ele>2732</ele>
      </trkpt>
      <trkpt lat="45.790185" lon="6.767273">
        <ele>2727</ele>
      </trkpt>
      <trkpt lat="45.789903" lon="6.767058">
        <ele>2715</ele>
      </trkpt>
      <trkpt lat="45.78958" lon="6.766647">
        <ele>2702</ele>
      </trkpt>
      <trkpt lat="45.789357" lon="6.766513">
        <ele>2698</ele>
      </trkpt>
      <trkpt lat="45.789218" lon="6.76654">
        <ele>2695</ele>
      </trkpt>
      <trkpt lat="45.788995" lon="6.766423">
        <ele>2689</ele>
      </trkpt>
      <trkpt lat="45.78884" lon="6.7662">
        <ele>2681</ele>
      </trkpt>
      <trkpt lat="45.788748" lon="6.766318">
        <ele>2677</ele>
      </trkpt>
      <trkpt lat="45.788425" lon="6.76634">
        <ele>2661</ele>
      </trkpt>
      <trkpt lat="45.788367" lon="6.766278">
        <ele>2659</ele>
      </trkpt>
      <trkpt lat="45.78831" lon="6.766388">
        <ele>2658</ele>
      </trkpt>
      <trkpt lat="45.788265" lon="6.766287">
        <ele>2655</ele>
      </trkpt>
      <trkpt lat="45.788182" lon="6.766422">
        <ele>2650</ele>
      </trkpt>
      <trkpt lat="45.788005" lon="6.766303">
        <ele>2641</ele>
      </trkpt>
      <trkpt lat="45.787913" lon="6.76608">
        <ele>2635</ele>
      </trkpt>
      <trkpt lat="45.787817" lon="6.766088">
        <ele>2630</ele>
      </trkpt>
      <trkpt lat="45.787768" lon="6.76591">
        <ele>2622</ele>
      </trkpt>
      <trkpt lat="45.78783" lon="6.76578">
        <ele>2620</ele>
      </trkpt>
      <trkpt lat="45.787743" lon="6.765663">
        <ele>2616</ele>
      </trkpt>
      <trkpt lat="45.787552" lon="6.76584">
        <ele>2606</ele>
      </trkpt>
      <trkpt lat="45.78741" lon="6.765662">
        <ele>2595</ele>
      </trkpt>
      <trkpt lat="45.787327" lon="6.765787">
        <ele>2586</ele>
      </trkpt>
      <trkpt lat="45.787193" lon="6.765822">
        <ele>2581</ele>
      </trkpt>
      <trkpt lat="45.787128" lon="6.765938">
        <ele>2578</ele>
      </trkpt>
      <trkpt lat="45.78719" lon="6.76608">
        <ele>2579</ele>
      </trkpt>
      <trkpt lat="45.787155" lon="6.766065">
        <ele>2581</ele>
      </trkpt>
      <trkpt lat="45.787152" lon="6.76616">
        <ele>2583</ele>
      </trkpt>
      <trkpt lat="45.787013" lon="6.76583">
        <ele>2593</ele>
      </trkpt>
      <trkpt lat="45.786982" lon="6.765378">
        <ele>2581</ele>
      </trkpt>
      <trkpt lat="45.786902" lon="6.765337">
        <ele>2577</ele>
      </trkpt>
      <trkpt lat="45.78687" lon="6.76508">
        <ele>2572</ele>
      </trkpt>
      <trkpt lat="45.78694" lon="6.76432">
        <ele>2566</ele>
      </trkpt>
      <trkpt lat="45.787072" lon="6.764278">
        <ele>2564</ele>
      </trkpt>
      <trkpt lat="45.787068" lon="6.764162">
        <ele>2562</ele>
      </trkpt>
      <trkpt lat="45.786888" lon="6.763978">
        <ele>2560</ele>
      </trkpt>
      <trkpt lat="45.786933" lon="6.76381">
        <ele>2561</ele>
      </trkpt>
      <trkpt lat="45.786877" lon="6.7636">
        <ele>2562</ele>
      </trkpt>
      <trkpt lat="45.786912" lon="6.763482">
        <ele>2561</ele>
      </trkpt>
      <trkpt lat="45.786877" lon="6.763197">
        <ele>2556</ele>
      </trkpt>
      <trkpt lat="45.786562" lon="6.762758">
        <ele>2545</ele>
      </trkpt>
      <trkpt lat="45.7864" lon="6.762353">
        <ele>2543</ele>
      </trkpt>
      <trkpt lat="45.786195" lon="6.761287">
        <ele>2528</ele>
      </trkpt>
      <trkpt lat="45.785977" lon="6.760918">
        <ele>2515</ele>
      </trkpt>
      <trkpt lat="45.785918" lon="6.760717">
        <ele>2512</ele>
      </trkpt>
      <trkpt lat="45.785688" lon="6.760463">
        <ele>2507</ele>
      </trkpt>
      <trkpt lat="45.78548" lon="6.760105">
        <ele>2500</ele>
      </trkpt>
      <trkpt lat="45.78519" lon="6.759958">
        <ele>2489</ele>
      </trkpt>
      <trkpt lat="45.784828" lon="6.759587">
        <ele>2476</ele>
      </trkpt>
      <trkpt lat="45.784697" lon="6.759645">
        <ele>2467</ele>
      </trkpt>
      <trkpt lat="45.78461" lon="6.7595">
        <ele>2461</ele>
      </trkpt>
      <trkpt lat="45.784575" lon="6.75957">
        <ele>2459</ele>
      </trkpt>
      <trkpt lat="45.784352" lon="6.759493">
        <ele>2450</ele>
      </trkpt>
      <trkpt lat="45.784248" lon="6.759633">
        <ele>2446</ele>
      </trkpt>
      <trkpt lat="45.78413" lon="6.7596">
        <ele>2439</ele>
      </trkpt>
      <trkpt lat="45.784008" lon="6.759332">
        <ele>2429</ele>
      </trkpt>
      <trkpt lat="45.783922" lon="6.758787">
        <ele>2413</ele>
      </trkpt>
      <trkpt lat="45.784088" lon="6.758758">
        <ele>2407</ele>
      </trkpt>
      <trkpt lat="45.784533" lon="6.758145">
        <ele>2393</ele>
      </trkpt>
      <trkpt lat="45.78463" lon="6.757675">
        <ele>2380</ele>
      </trkpt>
      <trkpt lat="45.784502" lon="6.757518">
        <ele>2376</ele>
      </trkpt>
      <trkpt lat="45.784668" lon="6.757405">
        <ele>2372</ele>
      </trkpt>
      <trkpt lat="45.784773" lon="6.75724">
        <ele>2371</ele>
      </trkpt>
      <trkpt lat="45.784995" lon="6.757178">
        <ele>2368</ele>
      </trkpt>
      <trkpt lat="45.785327" lon="6.756958">
        <ele>2361</ele>
      </trkpt>
      <trkpt lat="45.7856" lon="6.756437">
        <ele>2354</ele>
      </trkpt>
      <trkpt lat="45.785622" lon="6.756245">
        <ele>2344</ele>
      </trkpt>
      <trkpt lat="45.786028" lon="6.755762">
        <ele>2338</ele>
      </trkpt>
      <trkpt lat="45.786275" lon="6.755675">
        <ele>2341</ele>
      </trkpt>
      <trkpt lat="45.78648" lon="6.75571">
        <ele>2341</ele>
      </trkpt>
      <trkpt lat="45.786892" lon="6.755543">
        <ele>2341</ele>
      </trkpt>
      <trkpt lat="45.787315" lon="6.755605">
        <ele>2342</ele>
      </trkpt>
      <trkpt lat="45.787775" lon="6.75538">
        <ele>2349</ele>
      </trkpt>
      <trkpt lat="45.78821" lon="6.755403">
        <ele>2357</ele>
      </trkpt>
      <trkpt lat="45.788313" lon="6.75556">
        <ele>2360</ele>
      </trkpt>
      <trkpt lat="45.788482" lon="6.755653">
        <ele>2366</ele>
      </trkpt>
      <trkpt lat="45.788572" lon="6.755815">
        <ele>2369</ele>
      </trkpt>
      <trkpt lat="45.788665" lon="6.755803">
        <ele>2373</ele>
      </trkpt>
      <trkpt lat="45.788867" lon="6.755978">
        <ele>2381</ele>
      </trkpt>
      <trkpt lat="45.789302" lon="6.756123">
        <ele>2395</ele>
      </trkpt>
      <trkpt lat="45.789472" lon="6.7563">
        <ele>2404</ele>
      </trkpt>
      <trkpt lat="45.789718" lon="6.75639">
        <ele>2411</ele>
      </trkpt>
      <trkpt lat="45.78989" lon="6.756563">
        <ele>2417</ele>
      </trkpt>
      <trkpt lat="45.790115" lon="6.756673">
        <ele>2423</ele>
      </trkpt>
      <trkpt lat="45.7898" lon="6.756933">
        <ele>2433</ele>
      </trkpt>
      <trkpt lat="45.790147" lon="6.7571">
        <ele>2439</ele>
      </trkpt>
      <trkpt lat="45.790533" lon="6.757437">
        <ele>2445</ele>
      </trkpt>
      <trkpt lat="45.790805" lon="6.7578">
        <ele>2454</ele>
      </trkpt>
      <trkpt lat="45.791167" lon="6.757763">
        <ele>2455</ele>
      </trkpt>
      <trkpt lat="45.791247" lon="6.757678">
        <ele>2454</ele>
      </trkpt>
      <trkpt lat="45.79125" lon="6.757518">
        <ele>2454</ele>
      </trkpt>
      <trkpt lat="45.791155" lon="6.756722">
        <ele>2451</ele>
      </trkpt>
      <trkpt lat="45.7914" lon="6.756203">
        <ele>2446</ele>
      </trkpt>
      <trkpt lat="45.791403" lon="6.75596">
        <ele>2440</ele>
      </trkpt>
      <trkpt lat="45.79148" lon="6.755815">
        <ele>2436</ele>
      </trkpt>
      <trkpt lat="45.791468" lon="6.755445">
        <ele>2428</ele>
      </trkpt>
      <trkpt lat="45.791615" lon="6.754868">
        <ele>2421</ele>
      </trkpt>
      <trkpt lat="45.791605" lon="6.754598">
        <ele>2418</ele>
      </trkpt>
      <trkpt lat="45.791682" lon="6.754275">
        <ele>2417</ele>
      </trkpt>
      <trkpt lat="45.79168" lon="6.75395">
        <ele>2419</ele>
      </trkpt>
      <trkpt lat="45.791625" lon="6.753813">
        <ele>2421</ele>
      </trkpt>
      <trkpt lat="45.791708" lon="6.753833">
        <ele>2427</ele>
      </trkpt>
      <trkpt lat="45.791747" lon="6.75372">
        <ele>2428</ele>
      </trkpt>
      <trkpt lat="45.792383" lon="6.75397">
        <ele>2433</ele>
      </trkpt>
      <trkpt lat="45.793097" lon="6.754045">
        <ele>2433</ele>
      </trkpt>
      <trkpt lat="45.793497" lon="6.753877">
        <ele>2434</ele>
      </trkpt>
      <trkpt lat="45.79357" lon="6.753752">
        <ele>2432</ele>
      </trkpt>
      <trkpt lat="45.793772" lon="6.753788">
        <ele>2430</ele>
      </trkpt>
      <trkpt lat="45.793928" lon="6.753607">
        <ele>2427</ele>
      </trkpt>
      <trkpt lat="45.793952" lon="6.753287">
        <ele>2426</ele>
      </trkpt>
      <trkpt lat="45.79381" lon="6.752958">
        <ele>2421</ele>
      </trkpt>
      <trkpt lat="45.793842" lon="6.752658">
        <ele>2416</ele>
      </trkpt>
      <trkpt lat="45.7938" lon="6.752503">
        <ele>2412</ele>
      </trkpt>
      <trkpt lat="45.79404" lon="6.75234">
        <ele>2404</ele>
      </trkpt>
      <trkpt lat="45.794082" lon="6.752202">
        <ele>2404</ele>
      </trkpt>
      <trkpt lat="45.794105" lon="6.751983">
        <ele>2404</ele>
      </trkpt>
      <trkpt lat="45.79405" lon="6.751748">
        <ele>2403</ele>
      </trkpt>
      <trkpt lat="45.794108" lon="6.751382">
        <ele>2401</ele>
      </trkpt>
      <trkpt lat="45.79408" lon="6.75112">
        <ele>2398</ele>
      </trkpt>
      <trkpt lat="45.79399" lon="6.750972">
        <ele>2395</ele>
      </trkpt>
      <trkpt lat="45.793983" lon="6.750738">
        <ele>2393</ele>
      </trkpt>
      <trkpt lat="45.793893" lon="6.750612">
        <ele>2392</ele>
      </trkpt>
      <trkpt lat="45.793907" lon="6.75036">
        <ele>2392</ele>
      </trkpt>
      <trkpt lat="45.79399" lon="6.750268">
        <ele>2391</ele>
      </trkpt>
      <trkpt lat="45.793938" lon="6.750107">
        <ele>2391</ele>
      </trkpt>
      <trkpt lat="45.793942" lon="6.749835">
        <ele>2389</ele>
      </trkpt>
      <trkpt lat="45.793715" lon="6.749245">
        <ele>2388</ele>
      </trkpt>
      <trkpt lat="45.793733" lon="6.749053">
        <ele>2388</ele>
      </trkpt>
      <trkpt lat="45.79365" lon="6.748497">
        <ele>2374</ele>
      </trkpt>
      <trkpt lat="45.793772" lon="6.748317">
        <ele>2368</ele>
      </trkpt>
      <trkpt lat="45.793782" lon="6.747983">
        <ele>2360</ele>
      </trkpt>
      <trkpt lat="45.79365" lon="6.7479">
        <ele>2353</ele>
      </trkpt>
      <trkpt lat="45.793667" lon="6.74767">
        <ele>2347</ele>
      </trkpt>
      <trkpt lat="45.793602" lon="6.74769">
        <ele>2345</ele>
      </trkpt>
      <trkpt lat="45.793583" lon="6.747805">
        <ele>2342</ele>
      </trkpt>
      <trkpt lat="45.79351" lon="6.747868">
        <ele>2340</ele>
      </trkpt>
      <trkpt lat="45.793452" lon="6.747853">
        <ele>2337</ele>
      </trkpt>
      <trkpt lat="45.793452" lon="6.747673">
        <ele>2333</ele>
      </trkpt>
      <trkpt lat="45.793378" lon="6.747567">
        <ele>2329</ele>
      </trkpt>
      <trkpt lat="45.793407" lon="6.747335">
        <ele>2325</ele>
      </trkpt>
      <trkpt lat="45.793292" lon="6.747038">
        <ele>2314</ele>
      </trkpt>
      <trkpt lat="45.793247" lon="6.747052">
        <ele>2311</ele>
      </trkpt>
      <trkpt lat="45.793263" lon="6.746702">
        <ele>2302</ele>
      </trkpt>
      <trkpt lat="45.79319" lon="6.74663">
        <ele>2299</ele>
      </trkpt>
      <trkpt lat="45.793193" lon="6.746462">
        <ele>2294</ele>
      </trkpt>
      <trkpt lat="45.792927" lon="6.746048">
        <ele>2283</ele>
      </trkpt>
      <trkpt lat="45.79268" lon="6.745483">
        <ele>2267</ele>
      </trkpt>
      <trkpt lat="45.792648" lon="6.745238">
        <ele>2260</ele>
      </trkpt>
      <trkpt lat="45.792588" lon="6.74514">
        <ele>2256</ele>
      </trkpt>
      <trkpt lat="45.792505" lon="6.74507">
        <ele>2253</ele>
      </trkpt>
      <trkpt lat="45.79245" lon="6.745127">
        <ele>2249</ele>
      </trkpt>
      <trkpt lat="45.792505" lon="6.745353">
        <ele>2240</ele>
      </trkpt>
      <trkpt lat="45.792373" lon="6.745382">
        <ele>2234</ele>
      </trkpt>
      <trkpt lat="45.792358" lon="6.745518">
        <ele>2231</ele>
      </trkpt>
      <trkpt lat="45.792303" lon="6.74542">
        <ele>2228</ele>
      </trkpt>
      <trkpt lat="45.792293" lon="6.745602">
        <ele>2224</ele>
      </trkpt>
      <trkpt lat="45.792237" lon="6.745562">
        <ele>2221</ele>
      </trkpt>
      <trkpt lat="45.792213" lon="6.745612">
        <ele>2219</ele>
      </trkpt>
      <trkpt lat="45.792237" lon="6.745932">
        <ele>2211</ele>
      </trkpt>
      <trkpt lat="45.79214" lon="6.745882">
        <ele>2208</ele>
      </trkpt>
      <trkpt lat="45.791887" lon="6.74514">
        <ele>2188</ele>
      </trkpt>
      <trkpt lat="45.791893" lon="6.74485">
        <ele>2181</ele>
      </trkpt>
      <trkpt lat="45.791858" lon="6.744918">
        <ele>2179</ele>
      </trkpt>
      <trkpt lat="45.791723" lon="6.744657">
        <ele>2169</ele>
      </trkpt>
      <trkpt lat="45.791552" lon="6.744107">
        <ele>2153</ele>
      </trkpt>
      <trkpt lat="45.791558" lon="6.743477">
        <ele>2134</ele>
      </trkpt>
      <trkpt lat="45.791507" lon="6.743373">
        <ele>2132</ele>
      </trkpt>
      <trkpt lat="45.79157" lon="6.743302">
        <ele>2129</ele>
      </trkpt>
      <trkpt lat="45.79151" lon="6.74326">
        <ele>2127</ele>
      </trkpt>
      <trkpt lat="45.791365" lon="6.743503">
        <ele>2123</ele>
      </trkpt>
      <trkpt lat="45.791305" lon="6.74354">
        <ele>2121</ele>
      </trkpt>
      <trkpt lat="45.791285" lon="6.743482">
        <ele>2119</ele>
      </trkpt>
      <trkpt lat="45.79126" lon="6.743242">
        <ele>2116</ele>
      </trkpt>
      <trkpt lat="45.791478" lon="6.742835">
        <ele>2104</ele>
      </trkpt>
      <trkpt lat="45.791437" lon="6.742673">
        <ele>2101</ele>
      </trkpt>
      <trkpt lat="45.791472" lon="6.7422">
        <ele>2096</ele>
      </trkpt>
      <trkpt lat="45.791437" lon="6.74194">
        <ele>2094</ele>
      </trkpt>
      <trkpt lat="45.791385" lon="6.741892">
        <ele>2094</ele>
      </trkpt>
      <trkpt lat="45.791403" lon="6.741568">
        <ele>2090</ele>
      </trkpt>
      <trkpt lat="45.791212" lon="6.740433">
        <ele>2073</ele>
      </trkpt>
      <trkpt lat="45.791155" lon="6.739738">
        <ele>2059</ele>
      </trkpt>
      <trkpt lat="45.791365" lon="6.73974">
        <ele>2054</ele>
      </trkpt>
      <trkpt lat="45.791417" lon="6.739587">
        <ele>2049</ele>
      </trkpt>
      <trkpt lat="45.791253" lon="6.73955">
        <ele>2044</ele>
      </trkpt>
      <trkpt lat="45.791138" lon="6.739287">
        <ele>2034</ele>
      </trkpt>
      <trkpt lat="45.790947" lon="6.739092">
        <ele>2026</ele>
      </trkpt>
      <trkpt lat="45.790982" lon="6.73898">
        <ele>2021</ele>
      </trkpt>
      <trkpt lat="45.790885" lon="6.738927">
        <ele>2019</ele>
      </trkpt>
      <trkpt lat="45.790915" lon="6.738853">
        <ele>2017</ele>
      </trkpt>
      <trkpt lat="45.790863" lon="6.738763">
        <ele>2014</ele>
      </trkpt>
      <trkpt lat="45.790717" lon="6.738697">
        <ele>2010</ele>
      </trkpt>
      <trkpt lat="45.790892" lon="6.738483">
        <ele>2008</ele>
      </trkpt>
      <trkpt lat="45.79092" lon="6.738412">
        <ele>1999</ele>
      </trkpt>
      <trkpt lat="45.790867" lon="6.738322">
        <ele>1999</ele>
      </trkpt>
      <trkpt lat="45.791062" lon="6.73818">
        <ele>1997</ele>
      </trkpt>
      <trkpt lat="45.791148" lon="6.737228">
        <ele>1995</ele>
      </trkpt>
      <trkpt lat="45.791218" lon="6.737115">
        <ele>1995</ele>
      </trkpt>
      <trkpt lat="45.791388" lon="6.737098">
        <ele>1993</ele>
      </trkpt>
      <trkpt lat="45.791452" lon="6.737007">
        <ele>1992</ele>
      </trkpt>
      <trkpt lat="45.79142" lon="6.735995">
        <ele>1985</ele>
      </trkpt>
      <trkpt lat="45.7915" lon="6.735678">
        <ele>1985</ele>
      </trkpt>
      <trkpt lat="45.791478" lon="6.73554">
        <ele>1985</ele>
      </trkpt>
      <trkpt lat="45.791448" lon="6.735585">
        <ele>1977</ele>
      </trkpt>
      <trkpt lat="45.791518" lon="6.735565">
        <ele>1974</ele>
      </trkpt>
      <trkpt lat="45.791558" lon="6.735155">
        <ele>1971</ele>
      </trkpt>
      <trkpt lat="45.791762" lon="6.734777">
        <ele>1969</ele>
      </trkpt>
      <trkpt lat="45.791727" lon="6.734858">
        <ele>1970</ele>
      </trkpt>
      <trkpt lat="45.79172" lon="6.734813">
        <ele>1967</ele>
      </trkpt>
      <trkpt lat="45.791688" lon="6.734893">
        <ele>1965</ele>
      </trkpt>
      <trkpt lat="45.791795" lon="6.73496">
        <ele>1962</ele>
      </trkpt>
      <trkpt lat="45.791903" lon="6.73535">
        <ele>1960</ele>
      </trkpt>
      <trkpt lat="45.792325" lon="6.735723">
        <ele>1950</ele>
      </trkpt>
      <trkpt lat="45.792492" lon="6.735427">
        <ele>1938</ele>
      </trkpt>
      <trkpt lat="45.792415" lon="6.735177">
        <ele>1933</ele>
      </trkpt>
      <trkpt lat="45.79247" lon="6.73507">
        <ele>1930</ele>
      </trkpt>
      <trkpt lat="45.792383" lon="6.734752">
        <ele>1921</ele>
      </trkpt>
      <trkpt lat="45.792412" lon="6.734495">
        <ele>1917</ele>
      </trkpt>
      <trkpt lat="45.792345" lon="6.734322">
        <ele>1914</ele>
      </trkpt>
      <trkpt lat="45.79238" lon="6.73429">
        <ele>1913</ele>
      </trkpt>
      <trkpt lat="45.793318" lon="6.735168">
        <ele>1892</ele>
      </trkpt>
      <trkpt lat="45.793475" lon="6.735208">
        <ele>1889</ele>
      </trkpt>
      <trkpt lat="45.793455" lon="6.7351">
        <ele>1886</ele>
      </trkpt>
      <trkpt lat="45.793993" lon="6.73522">
        <ele>1873</ele>
      </trkpt>
      <trkpt lat="45.794008" lon="6.735137">
        <ele>1872</ele>
      </trkpt>
      <trkpt lat="45.794265" lon="6.735402">
        <ele>1860</ele>
      </trkpt>
      <trkpt lat="45.794547" lon="6.73537">
        <ele>1855</ele>
      </trkpt>
      <trkpt lat="45.795033" lon="6.735735">
        <ele>1847</ele>
      </trkpt>
      <trkpt lat="45.795235" lon="6.736">
        <ele>1840</ele>
      </trkpt>
      <trkpt lat="45.79565" lon="6.73622">
        <ele>1831</ele>
      </trkpt>
      <trkpt lat="45.795792" lon="6.736393">
        <ele>1823</ele>
      </trkpt>
      <trkpt lat="45.796652" lon="6.736793">
        <ele>1807</ele>
      </trkpt>
      <trkpt lat="45.796675" lon="6.736747">
        <ele>1806</ele>
      </trkpt>
      <trkpt lat="45.796527" lon="6.73664">
        <ele>1805</ele>
      </trkpt>
      <trkpt lat="45.796018" lon="6.7359">
        <ele>1787</ele>
      </trkpt>
      <trkpt lat="45.79615" lon="6.735892">
        <ele>1784</ele>
      </trkpt>
      <trkpt lat="45.796633" lon="6.7361">
        <ele>1776</ele>
      </trkpt>
      <trkpt lat="45.796923" lon="6.73598">
        <ele>1771</ele>
      </trkpt>
      <trkpt lat="45.797083" lon="6.736">
        <ele>1770</ele>
      </trkpt>
      <trkpt lat="45.79719" lon="6.735888">
        <ele>1768</ele>
      </trkpt>
      <trkpt lat="45.797442" lon="6.735815">
        <ele>1765</ele>
      </trkpt>
      <trkpt lat="45.797743" lon="6.735545">
        <ele>1760</ele>
      </trkpt>
      <trkpt lat="45.798088" lon="6.73552">
        <ele>1756</ele>
      </trkpt>
      <trkpt lat="45.79832" lon="6.735323">
        <ele>1753</ele>
      </trkpt>
      <trkpt lat="45.79846" lon="6.735333">
        <ele>1753</ele>
      </trkpt>
      <trkpt lat="45.798557" lon="6.735255">
        <ele>1752</ele>
      </trkpt>
      <trkpt lat="45.798863" lon="6.73534">
        <ele>1747</ele>
      </trkpt>
      <trkpt lat="45.799305" lon="6.735155">
        <ele>1744</ele>
      </trkpt>
      <trkpt lat="45.799563" lon="6.735273">
        <ele>1743</ele>
      </trkpt>
      <trkpt lat="45.799983" lon="6.7353">
        <ele>1741</ele>
      </trkpt>
      <trkpt lat="45.800397" lon="6.735467">
        <ele>1740</ele>
      </trkpt>
      <trkpt lat="45.80135" lon="6.736482">
        <ele>1738</ele>
      </trkpt>
      <trkpt lat="45.801535" lon="6.736605">
        <ele>1734</ele>
      </trkpt>
      <trkpt lat="45.801615" lon="6.736828">
        <ele>1730</ele>
      </trkpt>
      <trkpt lat="45.802262" lon="6.737338">
        <ele>1721</ele>
      </trkpt>
      <trkpt lat="45.802665" lon="6.737613">
        <ele>1714</ele>
      </trkpt>
      <trkpt lat="45.802797" lon="6.737618">
        <ele>1711</ele>
      </trkpt>
      <trkpt lat="45.803218" lon="6.737943">
        <ele>1705</ele>
      </trkpt>
      <trkpt lat="45.803385" lon="6.737957">
        <ele>1702</ele>
      </trkpt>
      <trkpt lat="45.80344" lon="6.737885">
        <ele>1699</ele>
      </trkpt>
      <trkpt lat="45.803205" lon="6.737477">
        <ele>1690</ele>
      </trkpt>
      <trkpt lat="45.80349" lon="6.73738">
        <ele>1680</ele>
      </trkpt>
      <trkpt lat="45.803878" lon="6.737467">
        <ele>1672</ele>
      </trkpt>
      <trkpt lat="45.803782" lon="6.7373">
        <ele>1666</ele>
      </trkpt>
      <trkpt lat="45.804272" lon="6.737705">
        <ele>1653</ele>
      </trkpt>
      <trkpt lat="45.80431" lon="6.737527">
        <ele>1649</ele>
      </trkpt>
      <trkpt lat="45.804405" lon="6.737467">
        <ele>1646</ele>
      </trkpt>
      <trkpt lat="45.804408" lon="6.737343">
        <ele>1644</ele>
      </trkpt>
      <trkpt lat="45.804547" lon="6.737403">
        <ele>1641</ele>
      </trkpt>
      <trkpt lat="45.804533" lon="6.73736">
        <ele>1639</ele>
      </trkpt>
      <trkpt lat="45.804687" lon="6.737232">
        <ele>1636</ele>
      </trkpt>
      <trkpt lat="45.804915" lon="6.737315">
        <ele>1635</ele>
      </trkpt>
      <trkpt lat="45.804863" lon="6.737235">
        <ele>1632</ele>
      </trkpt>
      <trkpt lat="45.80492" lon="6.73708">
        <ele>1629</ele>
      </trkpt>
      <trkpt lat="45.80494" lon="6.73658">
        <ele>1623</ele>
      </trkpt>
      <trkpt lat="45.804808" lon="6.736385">
        <ele>1623</ele>
      </trkpt>
      <trkpt lat="45.804575" lon="6.73638">
        <ele>1619</ele>
      </trkpt>
      <trkpt lat="45.804213" lon="6.736213">
        <ele>1612</ele>
      </trkpt>
      <trkpt lat="45.803952" lon="6.736198">
        <ele>1607</ele>
      </trkpt>
      <trkpt lat="45.80412" lon="6.736192">
        <ele>1605</ele>
      </trkpt>
      <trkpt lat="45.804412" lon="6.735948">
        <ele>1599</ele>
      </trkpt>
      <trkpt lat="45.804488" lon="6.73597">
        <ele>1598</ele>
      </trkpt>
      <trkpt lat="45.804495" lon="6.735838">
        <ele>1597</ele>
      </trkpt>
      <trkpt lat="45.804438" lon="6.735815">
        <ele>1596</ele>
      </trkpt>
      <trkpt lat="45.804562" lon="6.73574">
        <ele>1593</ele>
      </trkpt>
      <trkpt lat="45.804495" lon="6.735738">
        <ele>1591</ele>
      </trkpt>
      <trkpt lat="45.804523" lon="6.735635">
        <ele>1589</ele>
      </trkpt>
      <trkpt lat="45.804408" lon="6.735577">
        <ele>1587</ele>
      </trkpt>
      <trkpt lat="45.804217" lon="6.735625">
        <ele>1578</ele>
      </trkpt>
      <trkpt lat="45.804175" lon="6.735168">
        <ele>1572</ele>
      </trkpt>
      <trkpt lat="45.804355" lon="6.735377">
        <ele>1569</ele>
      </trkpt>
      <trkpt lat="45.804508" lon="6.73533">
        <ele>1566</ele>
      </trkpt>
      <trkpt lat="45.804672" lon="6.735055">
        <ele>1561</ele>
      </trkpt>
      <trkpt lat="45.804732" lon="6.73505">
        <ele>1560</ele>
      </trkpt>
      <trkpt lat="45.804888" lon="6.734715">
        <ele>1557</ele>
      </trkpt>
      <trkpt lat="45.805152" lon="6.734442">
        <ele>1552</ele>
      </trkpt>
      <trkpt lat="45.80492" lon="6.734687">
        <ele>1544</ele>
      </trkpt>
      <trkpt lat="45.804713" lon="6.734737">
        <ele>1537</ele>
      </trkpt>
      <trkpt lat="45.804537" lon="6.734682">
        <ele>1532</ele>
      </trkpt>
      <trkpt lat="45.804713" lon="6.734605">
        <ele>1529</ele>
      </trkpt>
      <trkpt lat="45.80519" lon="6.73391">
        <ele>1519</ele>
      </trkpt>
      <trkpt lat="45.805292" lon="6.73384">
        <ele>1518</ele>
      </trkpt>
      <trkpt lat="45.805522" lon="6.734052">
        <ele>1512</ele>
      </trkpt>
      <trkpt lat="45.805302" lon="6.733542">
        <ele>1506</ele>
      </trkpt>
      <trkpt lat="45.804995" lon="6.733683">
        <ele>1501</ele>
      </trkpt>
      <trkpt lat="45.804843" lon="6.733918">
        <ele>1497</ele>
      </trkpt>
      <trkpt lat="45.804717" lon="6.733897">
        <ele>1496</ele>
      </trkpt>
      <trkpt lat="45.804912" lon="6.73364">
        <ele>1493</ele>
      </trkpt>
      <trkpt lat="45.805003" lon="6.733275">
        <ele>1492</ele>
      </trkpt>
      <trkpt lat="45.805333" lon="6.732957">
        <ele>1486</ele>
      </trkpt>
      <trkpt lat="45.805545" lon="6.733">
        <ele>1478</ele>
      </trkpt>
      <trkpt lat="45.805285" lon="6.732607">
        <ele>1469</ele>
      </trkpt>
      <trkpt lat="45.804982" lon="6.732652">
        <ele>1461</ele>
      </trkpt>
      <trkpt lat="45.805285" lon="6.732298">
        <ele>1450</ele>
      </trkpt>
      <trkpt lat="45.80549" lon="6.732227">
        <ele>1444</ele>
      </trkpt>
      <trkpt lat="45.805267" lon="6.731968">
        <ele>1437</ele>
      </trkpt>
      <trkpt lat="45.805202" lon="6.732">
        <ele>1436</ele>
      </trkpt>
      <trkpt lat="45.805132" lon="6.731907">
        <ele>1434</ele>
      </trkpt>
      <trkpt lat="45.80501" lon="6.731907">
        <ele>1428</ele>
      </trkpt>
      <trkpt lat="45.805045" lon="6.731728">
        <ele>1424</ele>
      </trkpt>
      <trkpt lat="45.805312" lon="6.731478">
        <ele>1412</ele>
      </trkpt>
      <trkpt lat="45.80566" lon="6.731398">
        <ele>1404</ele>
      </trkpt>
      <trkpt lat="45.805983" lon="6.731465">
        <ele>1392</ele>
      </trkpt>
      <trkpt lat="45.806283" lon="6.731293">
        <ele>1380</ele>
      </trkpt>
      <trkpt lat="45.806502" lon="6.731462">
        <ele>1374</ele>
      </trkpt>
      <trkpt lat="45.806933" lon="6.731562">
        <ele>1370</ele>
      </trkpt>
      <trkpt lat="45.807138" lon="6.731362">
        <ele>1366</ele>
      </trkpt>
      <trkpt lat="45.807677" lon="6.731348">
        <ele>1354</ele>
      </trkpt>
      <trkpt lat="45.80813" lon="6.731143">
        <ele>1342</ele>
      </trkpt>
      <trkpt lat="45.807883" lon="6.731037">
        <ele>1332</ele>
      </trkpt>
      <trkpt lat="45.807907" lon="6.730982">
        <ele>1329</ele>
      </trkpt>
      <trkpt lat="45.808018" lon="6.73109">
        <ele>1326</ele>
      </trkpt>
      <trkpt lat="45.80815" lon="6.730955">
        <ele>1323</ele>
      </trkpt>
      <trkpt lat="45.807875" lon="6.730833">
        <ele>1315</ele>
      </trkpt>
      <trkpt lat="45.807963" lon="6.73069">
        <ele>1311</ele>
      </trkpt>
      <trkpt lat="45.808102" lon="6.730643">
        <ele>1306</ele>
      </trkpt>
      <trkpt lat="45.808127" lon="6.730545">
        <ele>1303</ele>
      </trkpt>
      <trkpt lat="45.808223" lon="6.730562">
        <ele>1302</ele>
      </trkpt>
      <trkpt lat="45.808405" lon="6.730402">
        <ele>1296</ele>
      </trkpt>
      <trkpt lat="45.808537" lon="6.730517">
        <ele>1292</ele>
      </trkpt>
      <trkpt lat="45.808588" lon="6.730458">
        <ele>1289</ele>
      </trkpt>
      <trkpt lat="45.809218" lon="6.73034">
        <ele>1273</ele>
      </trkpt>
      <trkpt lat="45.809458" lon="6.7304">
        <ele>1266</ele>
      </trkpt>
      <trkpt lat="45.809897" lon="6.73068">
        <ele>1250</ele>
      </trkpt>
      <trkpt lat="45.80997" lon="6.730608">
        <ele>1246</ele>
      </trkpt>
      <trkpt lat="45.810213" lon="6.73066">
        <ele>1242</ele>
      </trkpt>
      <trkpt lat="45.81045" lon="6.730517">
        <ele>1236</ele>
      </trkpt>
      <trkpt lat="45.810588" lon="6.73054">
        <ele>1234</ele>
      </trkpt>
      <trkpt lat="45.81077" lon="6.73044">
        <ele>1229</ele>
      </trkpt>
      <trkpt lat="45.811538" lon="6.730613">
        <ele>1217</ele>
      </trkpt>
      <trkpt lat="45.812367" lon="6.730623">
        <ele>1203</ele>
      </trkpt>
      <trkpt lat="45.812317" lon="6.730518">
        <ele>1203</ele>
      </trkpt>
      <trkpt lat="45.811458" lon="6.729987">
        <ele>1193</ele>
      </trkpt>
      <trkpt lat="45.811152" lon="6.729705">
        <ele>1189</ele>
      </trkpt>
      <trkpt lat="45.81104" lon="6.72973">
        <ele>1187</ele>
      </trkpt>
      <trkpt lat="45.810918" lon="6.729568">
        <ele>1186</ele>
      </trkpt>
      <trkpt lat="45.810175" lon="6.729188">
        <ele>1181</ele>
      </trkpt>
      <trkpt lat="45.810057" lon="6.728997">
        <ele>1182</ele>
      </trkpt>
      <trkpt lat="45.810157" lon="6.729165">
        <ele>1181</ele>
      </trkpt>
      <trkpt lat="45.810057" lon="6.72907">
        <ele>1180</ele>
      </trkpt>
      <trkpt lat="45.810373" lon="6.728317">
        <ele>1168</ele>
      </trkpt>
      <trkpt lat="45.810908" lon="6.72834">
        <ele>1169</ele>
      </trkpt>
      <trkpt lat="45.811468" lon="6.728052">
        <ele>1166</ele>
      </trkpt>
      <trkpt lat="45.81164" lon="6.727873">
        <ele>1167</ele>
      </trkpt>
      <trkpt lat="45.81213" lon="6.727567">
        <ele>1168</ele>
      </trkpt>
      <trkpt lat="45.812675" lon="6.727347">
        <ele>1168</ele>
      </trkpt>
      <trkpt lat="45.813593" lon="6.72722">
        <ele>1167</ele>
      </trkpt>
      <trkpt lat="45.814457" lon="6.727318">
        <ele>1163</ele>
      </trkpt>
      <trkpt lat="45.814703" lon="6.727282">
        <ele>1161</ele>
      </trkpt>
      <trkpt lat="45.814793" lon="6.727345">
        <ele>1161</ele>
      </trkpt>
      <trkpt lat="45.815177" lon="6.727152">
        <ele>1158</ele>
      </trkpt>
      <trkpt lat="45.815657" lon="6.727168">
        <ele>1156</ele>
      </trkpt>
      <trkpt lat="45.816512" lon="6.727402">
        <ele>1153</ele>
      </trkpt>
      <trkpt lat="45.817302" lon="6.728097">
        <ele>1152</ele>
      </trkpt>
      <trkpt lat="45.818008" lon="6.728388">
        <ele>1156</ele>
      </trkpt>
      <trkpt lat="45.818067" lon="6.728475">
        <ele>1156</ele>
      </trkpt>
      <trkpt lat="45.818237" lon="6.7285">
        <ele>1156</ele>
      </trkpt>
      <trkpt lat="45.818307" lon="6.72859">
        <ele>1157</ele>
      </trkpt>
      <trkpt lat="45.818258" lon="6.72874">
        <ele>1158</ele>
      </trkpt>
      <trkpt lat="45.818297" lon="6.728997">
        <ele>1160</ele>
      </trkpt>
      <trkpt lat="45.81848" lon="6.729265">
        <ele>1162</ele>
      </trkpt>
      <trkpt lat="45.81855" lon="6.729285">
        <ele>1163</ele>
      </trkpt>
      <trkpt lat="45.818732" lon="6.7297">
        <ele>1168</ele>
      </trkpt>
      <trkpt lat="45.819072" lon="6.729685">
        <ele>1172</ele>
      </trkpt>
      <trkpt lat="45.819427" lon="6.729878">
        <ele>1177</ele>
      </trkpt>
      <trkpt lat="45.81968" lon="6.729882">
        <ele>1180</ele>
      </trkpt>
      <trkpt lat="45.819993" lon="6.729993">
        <ele>1183</ele>
      </trkpt>
      <trkpt lat="45.820238" lon="6.729773">
        <ele>1186</ele>
      </trkpt>
      <trkpt lat="45.820432" lon="6.72972">
        <ele>1188</ele>
      </trkpt>
      <trkpt lat="45.820543" lon="6.72978">
        <ele>1190</ele>
      </trkpt>
      <trkpt lat="45.820802" lon="6.730277">
        <ele>1198</ele>
      </trkpt>
      <trkpt lat="45.820975" lon="6.730453">
        <ele>1199</ele>
      </trkpt>
      <trkpt lat="45.8211" lon="6.730438">
        <ele>1200</ele>
      </trkpt>
      <trkpt lat="45.821433" lon="6.73018">
        <ele>1202</ele>
      </trkpt>
      <trkpt lat="45.821555" lon="6.73018">
        <ele>1204</ele>
      </trkpt>
      <trkpt lat="45.821695" lon="6.730285">
        <ele>1207</ele>
      </trkpt>
      <trkpt lat="45.821785" lon="6.730417">
        <ele>1209</ele>
      </trkpt>
      <trkpt lat="45.821757" lon="6.730685">
        <ele>1212</ele>
      </trkpt>
      <trkpt lat="45.821833" lon="6.730895">
        <ele>1214</ele>
      </trkpt>
      <trkpt lat="45.822063" lon="6.731388">
        <ele>1222</ele>
      </trkpt>
      <trkpt lat="45.822383" lon="6.731735">
        <ele>1228</ele>
      </trkpt>
      <trkpt lat="45.82248" lon="6.732155">
        <ele>1233</ele>
      </trkpt>
      <trkpt lat="45.822537" lon="6.732587">
        <ele>1239</ele>
      </trkpt>
      <trkpt lat="45.822165" lon="6.732787">
        <ele>1240</ele>
      </trkpt>
      <trkpt lat="45.82207" lon="6.732932">
        <ele>1241</ele>
      </trkpt>
      <trkpt lat="45.822067" lon="6.73306">
        <ele>1242</ele>
      </trkpt>
      <trkpt lat="45.822198" lon="6.733183">
        <ele>1244</ele>
      </trkpt>
      <trkpt lat="45.822722" lon="6.733222">
        <ele>1250</ele>
      </trkpt>
      <trkpt lat="45.822843" lon="6.734405">
        <ele>1265</ele>
      </trkpt>
      <trkpt lat="45.822828" lon="6.73472">
        <ele>1267</ele>
      </trkpt>
      <trkpt lat="45.82304" lon="6.734978">
        <ele>1271</ele>
      </trkpt>
      <trkpt lat="45.823072" lon="6.735115">
        <ele>1273</ele>
      </trkpt>
    </trkseg>
  </trk>
</gpx>