<?xml version="1.0" encoding="UTF-8"?>
<gpx version="1.0" creator="Calcul itineraires - www.calculitineraires.fr" xmlns:xsi="http://www.w3.org/2001/XMLSchema-instance" xmlns="http://www.topografix.com/GPX/1/0" xsi:schemaLocation="http://www.topografix.com/GPX/1/0 http://www.topografix.com/GPX/1/0/gpx.xsd">
<trk>
<name>acces_Montenvers_merDeGlace</name>
<trkseg>
<trkpt lat="45.929699" lon="6.918623">
</trkpt>
<trkpt lat="45.929645" lon="6.918641">
</trkpt>
<trkpt lat="45.929397" lon="6.918823">
</trkpt>
<trkpt lat="45.929504" lon="6.918839">
</trkpt>
<trkpt lat="45.929504" lon="6.918839">
</trkpt>
<trkpt lat="45.929974" lon="6.918912">
</trkpt>
<trkpt lat="45.9303" lon="6.91894">
</trkpt>
<trkpt lat="45.930254" lon="6.91901">
</trkpt>
<trkpt lat="45.930028" lon="6.91918">
</trkpt>
<trkpt lat="45.929917" lon="6.919277">
</trkpt>
<trkpt lat="45.929807" lon="6.919339">
</trkpt>
<trkpt lat="45.929633" lon="6.919358">
</trkpt>
<trkpt lat="45.929589" lon="6.919415">
</trkpt>
<trkpt lat="45.929589" lon="6.919415">
</trkpt>
<trkpt lat="45.929589" lon="6.919415">
</trkpt>
<trkpt lat="45.929564" lon="6.919501">
</trkpt>
<trkpt lat="45.929448" lon="6.919496">
</trkpt>
<trkpt lat="45.929424" lon="6.919508">
</trkpt>
<trkpt lat="45.929419" lon="6.919552">
</trkpt>
<trkpt lat="45.92925" lon="6.919636">
</trkpt>
<trkpt lat="45.929217" lon="6.919725">
</trkpt>
<trkpt lat="45.929234" lon="6.919788">
</trkpt>
<trkpt lat="45.929212" lon="6.919811">
</trkpt>
<trkpt lat="45.929234" lon="6.919877">
</trkpt>
<trkpt lat="45.929216" lon="6.919964">
</trkpt>
<trkpt lat="45.929161" lon="6.919989">
</trkpt>
<trkpt lat="45.929083" lon="6.920059">
</trkpt>
<trkpt lat="45.92905" lon="6.92013">
</trkpt>
<trkpt lat="45.929038" lon="6.920222">
</trkpt>
<trkpt lat="45.929001" lon="6.920273">
</trkpt>
<trkpt lat="45.928983" lon="6.92028">
</trkpt>
<trkpt lat="45.928983" lon="6.92028">
</trkpt>
<trkpt lat="45.928898" lon="6.920317">
</trkpt>
<trkpt lat="45.928611" lon="6.920377">
</trkpt>
<trkpt lat="45.928568" lon="6.920347">
</trkpt>
<trkpt lat="45.928398" lon="6.920328">
</trkpt>
<trkpt lat="45.928314" lon="6.920279">
</trkpt>
<trkpt lat="45.928307" lon="6.920251">
</trkpt>
<trkpt lat="45.928311" lon="6.920223">
</trkpt>
<trkpt lat="45.928369" lon="6.920155">
</trkpt>
<trkpt lat="45.928369" lon="6.92012">
</trkpt>
<trkpt lat="45.928322" lon="6.920069">
</trkpt>
<trkpt lat="45.928232" lon="6.920024">
</trkpt>
<trkpt lat="45.928125" lon="6.920002">
</trkpt>
<trkpt lat="45.928043" lon="6.920013">
</trkpt>
<trkpt lat="45.927826" lon="6.91994">
</trkpt>
<trkpt lat="45.927525" lon="6.919882">
</trkpt>
<trkpt lat="45.927387" lon="6.919881">
</trkpt>
<trkpt lat="45.927299" lon="6.920017">
</trkpt>
<trkpt lat="45.927244" lon="6.920154">
</trkpt>
<trkpt lat="45.927237" lon="6.920214">
</trkpt>
<trkpt lat="45.927295" lon="6.920373">
</trkpt>
<trkpt lat="45.927272" lon="6.920386">
</trkpt>
<trkpt lat="45.927261" lon="6.920476">
</trkpt>
<trkpt lat="45.927212" lon="6.920523">
</trkpt>
<trkpt lat="45.927158" lon="6.920544">
</trkpt>
<trkpt lat="45.927154" lon="6.920599">
</trkpt>
<trkpt lat="45.927191" lon="6.920621">
</trkpt>
<trkpt lat="45.92718" lon="6.920651">
</trkpt>
<trkpt lat="45.927218" lon="6.920702">
</trkpt>
<trkpt lat="45.927219" lon="6.920729">
</trkpt>
<trkpt lat="45.927187" lon="6.920762">
</trkpt>
<trkpt lat="45.927314" lon="6.920924">
</trkpt>
<trkpt lat="45.927316" lon="6.921129">
</trkpt>
<trkpt lat="45.927299" lon="6.921192">
</trkpt>
<trkpt lat="45.927057" lon="6.921235">
</trkpt>
<trkpt lat="45.927015" lon="6.921265">
</trkpt>
<trkpt lat="45.927013" lon="6.921268">
</trkpt>
<trkpt lat="45.926580264068356" lon="6.921536922454834">
</trkpt>
<trkpt lat="45.92590861167328" lon="6.9216227531433105">
</trkpt>
<trkpt lat="45.925423524330405" lon="6.921923160552979">
</trkpt>
<trkpt lat="45.92525933996122" lon="6.921923160552979">
</trkpt>
<trkpt lat="45.92503545140198" lon="6.921933889389039">
</trkpt>
<trkpt lat="45.924550356423815" lon="6.922084093093873">
</trkpt>
</trkseg>
</trk>
</gpx>