<?xml version="1.0" encoding="UTF-8"?>
<gpx version="1.0" creator="Calcul itineraires - www.calculitineraires.fr" xmlns:xsi="http://www.w3.org/2001/XMLSchema-instance" xmlns="http://www.topografix.com/GPX/1/0" xsi:schemaLocation="http://www.topografix.com/GPX/1/0 http://www.topografix.com/GPX/1/0/gpx.xsd">
<trk>
<name>Mon parcours</name>
<trkseg>
<trkpt lat="45.87907440238261" lon="6.88721001148224">
<ele>3727.000000</ele>
</trkpt>
<trkpt lat="45.878865265853186" lon="6.887429952621461">
<ele>3721.000000</ele>
</trkpt>
<trkpt lat="45.878809247006295" lon="6.8876391649246225">
<ele>3714.000000</ele>
</trkpt>
<trkpt lat="45.87888767337614" lon="6.887875199317933">
<ele>3704.000000</ele>
</trkpt>
<trkpt lat="45.87897356879705" lon="6.888105869293214">
<ele>3689.000000</ele>
</trkpt>
<trkpt lat="45.878962365054" lon="6.888325810432435">
<ele>3673.000000</ele>
</trkpt>
<trkpt lat="45.879001887513795" lon="6.888458412139401">
<ele>3667.000000</ele>
</trkpt>
<trkpt lat="45.87905199493497" lon="6.888535022735596">
<ele>3666.000000</ele>
</trkpt>
<trkpt lat="45.87924992707653" lon="6.888577938079835">
<ele>3682.000000</ele>
</trkpt>
<trkpt lat="45.879425451215944" lon="6.888771057128907">
<ele>3684.000000</ele>
</trkpt>
<trkpt lat="45.879597240262314" lon="6.889221668243409">
<ele>3684.000000</ele>
</trkpt>
<trkpt lat="45.87979890498685" lon="6.889688372612">
<ele>3678.000000</ele>
</trkpt>
<trkpt lat="45.8802097012357" lon="6.889768838882447">
<ele>3672.000000</ele>
</trkpt>
<trkpt lat="45.880276922150905" lon="6.889838576316834">
<ele>3668.000000</ele>
</trkpt>
<trkpt lat="45.87970554177945" lon="6.8905091285705575">
<ele>3660.000000</ele>
</trkpt>
<trkpt lat="45.87845819427979" lon="6.891850233078003">
<ele>3593.000000</ele>
</trkpt>
<trkpt lat="45.877494655185906" lon="6.890970468521119">
<ele>3571.000000</ele>
</trkpt>
<trkpt lat="45.87667301950471" lon="6.890380382537843">
<ele>3555.000000</ele>
</trkpt>
<trkpt lat="45.8763406270731" lon="6.889978051185609">
<ele>3551.000000</ele>
</trkpt>
<trkpt lat="45.875851371674685" lon="6.889629364013673">
<ele>3541.000000</ele>
</trkpt>
<trkpt lat="45.875096938877675" lon="6.8890875577926645">
<ele>3531.000000</ele>
</trkpt>
<trkpt lat="45.87443752214432" lon="6.8889188300827">
<ele>3521.000000</ele>
</trkpt>
<trkpt lat="45.87417927570351" lon="6.888998793438051">
<ele>3518.000000</ele>
</trkpt>
<trkpt lat="45.87381223216707" lon="6.889239521695153">
<ele>3514.000000</ele>
</trkpt>
<trkpt lat="45.87311544455389" lon="6.889979392291155">
<ele>3507.000000</ele>
</trkpt>
<trkpt lat="45.872848480936824" lon="6.8903866689655">
<ele>3504.000000</ele>
</trkpt>
<trkpt lat="45.87212512269818" lon="6.891119079663923">
<ele>3495.000000</ele>
</trkpt>
<trkpt lat="45.871672080827835" lon="6.891706483437818">
<ele>3490.000000</ele>
</trkpt>
<trkpt lat="45.871120551602274" lon="6.892569651831019">
<ele>3481.000000</ele>
</trkpt>
<trkpt lat="45.870674969627714" lon="6.893400382247957">
<ele>3475.000000</ele>
</trkpt>
<trkpt lat="45.869894027708455" lon="6.895190672947095">
<ele>3468.000000</ele>
</trkpt>
<trkpt lat="45.86941558867693" lon="6.896063564345606">
<ele>3462.000000</ele>
</trkpt>
<trkpt lat="45.86871402338187" lon="6.897644558920284">
<ele>3445.000000</ele>
</trkpt>
<trkpt lat="45.86812578141749" lon="6.8985762074596435">
<ele>3429.000000</ele>
</trkpt>
<trkpt lat="45.867751361802874" lon="6.899673566225207">
<ele>3394.000000</ele>
</trkpt>
<trkpt lat="45.867379959671354" lon="6.900303298606306">
<ele>3369.000000</ele>
</trkpt>
<trkpt lat="45.86677327752045" lon="6.900956835596833">
<ele>3342.000000</ele>
</trkpt>
<trkpt lat="45.86669733748147" lon="6.900952141728793">
<ele>3340.000000</ele>
</trkpt>
<trkpt lat="45.86627832614019" lon="6.901507191357207">
<ele>3325.000000</ele>
</trkpt>
<trkpt lat="45.86556452326474" lon="6.902227364477195">
<ele>3305.000000</ele>
</trkpt>
<trkpt lat="45.864024264738106" lon="6.903401166199327">
<ele>3263.000000</ele>
</trkpt>
<trkpt lat="45.86271123960529" lon="6.904076999051811">
<ele>3235.000000</ele>
</trkpt>
<trkpt lat="45.8605723455517" lon="6.904997583481992">
<ele>3203.000000</ele>
</trkpt>
<trkpt lat="45.85962074808981" lon="6.905651204285335">
<ele>3188.000000</ele>
</trkpt>
<trkpt lat="45.85711455903788" lon="6.908028312023742">
<ele>3139.000000</ele>
</trkpt>
<trkpt lat="45.856460267675885" lon="6.908503230662186">
<ele>3139.000000</ele>
</trkpt>
<trkpt lat="45.855871606615295" lon="6.90923882648118">
<ele>3146.000000</ele>
</trkpt>
<trkpt lat="45.85569365881673" lon="6.909906947988653">
<ele>3152.000000</ele>
</trkpt>
<trkpt lat="45.85525821894103" lon="6.910533243792767">
<ele>3168.000000</ele>
</trkpt>
<trkpt lat="45.8543808851376" lon="6.913889441636808">
<ele>3183.000000</ele>
</trkpt>
<trkpt lat="45.853887610136184" lon="6.91451037302544">
<ele>3184.000000</ele>
</trkpt>
<trkpt lat="45.8535578660659" lon="6.915196012705032">
<ele>3181.000000</ele>
</trkpt>
<trkpt lat="45.853052772582856" lon="6.916001094504826">
<ele>3188.000000</ele>
</trkpt>
<trkpt lat="45.85208751261365" lon="6.9182602688705">
<ele>3207.000000</ele>
</trkpt>
<trkpt lat="45.85108763538449" lon="6.920377537610416">
<ele>3252.000000</ele>
</trkpt>
<trkpt lat="45.84937940351591" lon="6.927827456964971">
<ele>3404.000000</ele>
</trkpt>
<trkpt lat="45.849210424348314" lon="6.927996352311743">
<ele>3406.000000</ele>
</trkpt>
<trkpt lat="45.84838212467753" lon="6.929349694398797">
<ele>3406.000000</ele>
</trkpt>
<trkpt lat="45.84819193929337" lon="6.929471734913924">
<ele>3410.000000</ele>
</trkpt>
<trkpt lat="45.8477658033396" lon="6.930053690450535">
<ele>3407.000000</ele>
</trkpt>
<trkpt lat="45.84698515215627" lon="6.930221915245057">
<ele>3408.000000</ele>
</trkpt>
<trkpt lat="45.846506848653256" lon="6.930672526359559">
<ele>3394.000000</ele>
</trkpt>
<trkpt lat="45.846189222960945" lon="6.93139672279358">
<ele>3397.000000</ele>
</trkpt>
<trkpt lat="45.84587159545506" lon="6.9318580627441415">
<ele>3401.000000</ele>
</trkpt>
<trkpt lat="45.84562122896634" lon="6.932818293571473">
<ele>3378.000000</ele>
</trkpt>
<trkpt lat="45.84517654540987" lon="6.933526396751405">
<ele>3347.000000</ele>
</trkpt>
</trkseg>
</trk>
</gpx>